<?xml version="1.0" encoding="UTF-8"?> <kml xmlns="http://www.opengis.net/kml/2.2"> <Document> <Style id="colorstyle">     <IconStyle>        <color>5f000000</color>        <colorMode>0</colorMode>        <scale>0.7</scale>        <Icon>           <href>http://maps.google.com/mapfiles/kml/pal4/icon25.png</href>        </Icon>     </IconStyle>  </Style>  <Style id="stylefirst">     <IconStyle>        <color>64901200</color>        <scale>1.1</scale>        <Icon>           <href>http://google.com/mapfiles/ms/micons/flag.png</href>        </Icon>     </IconStyle>  </Style>  <Style id="stylelast">     <IconStyle>        <color>641400FF</color>        <scale>1.1</scale>        <Icon>           <href>http://google.com/mapfiles/ms/micons/flag.png</href>        </Icon>     </IconStyle>  </Style> <name>Itinerários</name><Folder><Style id="linestyle">   <LineStyle> <color>5aFF0000</color>    <width>4</width>   </LineStyle> </Style> <name>CONSORCIO ROTA REAL- TU - TAQUARAL X COOPEROURO - Volta</name> <open>1</open>    <Placemark>    <name> TAQUARAL X COOPEROURO </name>    <description><![CDATA[<div dir="ltr">Número 100 <br>Linha: TAQUARAL X COOPEROURO<br></div>]]></description>      <styleUrl>#linestyle</styleUrl>      <LineString>        <tessellate>1</tessellate>        <coordinates> -43.500971,-20.403175,0 -43.501101,-20.403120,0 -43.501197,-20.403107,0 -43.501360,-20.403170,0 -43.501568,-20.403254,0 -43.502258,-20.402994,0 -43.502840,-20.402729,0 -43.503446,-20.402399,0 -43.503771,-20.402265,0 -43.504202,-20.402159,0 -43.504438,-20.402177,0 -43.504634,-20.402167,0 -43.504927,-20.402225,0 -43.505335,-20.402342,0 -43.505904,-20.402802,0 -43.506165,-20.403038,0 -43.507114,-20.404116,0 -43.507282,-20.404394,0 -43.507403,-20.404683,0 -43.507479,-20.405019,0 -43.507628,-20.406170,0 -43.507672,-20.406401,0 -43.507769,-20.406611,0 -43.507902,-20.406763,0 -43.508117,-20.406892,0 -43.508660,-20.407092,0 -43.508779,-20.407063,0 -43.508900,-20.407043,0 -43.509015,-20.407040,0 -43.509130,-20.407075,0 -43.509189,-20.406795,0 -43.509233,-20.406677,0 -43.509307,-20.406527,0 -43.509374,-20.406427,0 -43.509503,-20.406309,0 -43.509858,-20.406075,0 -43.510014,-20.405948,0 -43.510169,-20.405783,0 -43.510263,-20.405625,0 -43.510327,-20.405467,0 -43.510417,-20.405163,0 -43.510478,-20.405039,0 -43.510552,-20.404958,0 -43.510680,-20.404881,0 -43.510816,-20.404841,0 -43.511187,-20.404812,0 -43.511278,-20.404755,0 -43.511348,-20.404693,0 -43.511674,-20.404175,0 -43.511721,-20.404059,0 -43.511745,-20.403985,0 -43.511723,-20.403879,0 -43.511449,-20.403254,0 -43.511392,-20.403137,0 -43.511234,-20.402933,0 -43.510963,-20.402698,0 -43.510882,-20.402640,0 -43.510835,-20.402613,0 -43.510627,-20.402566,0 -43.510073,-20.403152,0 -43.510458,-20.403448,0 -43.510925,-20.403264,0 -43.510948,-20.403172,0 -43.510932,-20.403091,0 -43.510888,-20.402986,0 -43.510537,-20.402725,0 -43.510498,-20.402676,0 -43.510602,-20.402557,0 -43.510590,-20.402435,0 -43.510501,-20.402243,0 -43.509977,-20.401632,0 -43.509370,-20.400902,0 -43.508968,-20.400407,0 -43.508718,-20.400097,0 -43.508532,-20.399857,0 -43.508353,-20.399617,0 -43.507863,-20.399258,0 -43.507375,-20.398815,0 -43.507260,-20.398622,0 -43.506985,-20.398418,0 -43.506853,-20.398320,0 -43.506666,-20.398217,0 -43.506790,-20.398016,0 -43.506867,-20.397866,0 -43.506913,-20.397774,0 -43.507039,-20.397717,0 -43.507360,-20.398046,0 -43.507622,-20.398405,0 -43.507855,-20.398607,0 -43.507908,-20.398650,0 -43.508195,-20.398660,0 -43.508335,-20.398660,0 -43.512296,-20.398691,0 -43.512298,-20.394976,0 -43.512264,-20.394929,0 -43.510120,-20.394901,0 -43.509997,-20.394968,0 -43.509206,-20.395999,0 -43.509095,-20.396072,0 -43.506687,-20.396022,0 -43.506524,-20.396033,0 -43.506504,-20.397280,0 -43.506551,-20.397347,0 -43.506719,-20.397532,0 -43.506903,-20.397626,0 -43.507264,-20.397915,0 -43.507186,-20.398058,0 -43.507074,-20.398135,0 -43.506903,-20.398247,0 -43.506753,-20.398278,0 -43.506632,-20.398210,0 -43.506613,-20.398187,0 -43.506395,-20.398078,0 -43.506200,-20.398037,0 -43.505817,-20.398100,0 -43.505621,-20.398174,0 -43.505421,-20.398210,0 -43.504925,-20.398177,0 -43.504594,-20.398152,0 -43.504008,-20.398029,0 -43.503809,-20.397928,0 -43.503561,-20.397701,0 -43.503448,-20.397559,0 -43.503268,-20.397362,0 -43.503095,-20.397192,0 -43.502633,-20.396981,0 -43.502426,-20.396907,0 -43.501659,-20.396505,0 -43.501217,-20.396192,0 -43.501096,-20.396114,0 -43.500997,-20.396072,0 -43.500528,-20.395927,0 -43.500187,-20.395902,0 -43.499673,-20.395955,0 -43.499543,-20.395870,0 -43.499002,-20.395346,0 -43.498940,-20.395275,0 -43.498913,-20.395090,0 -43.498930,-20.394894,0 -43.499012,-20.394538,0 -43.499059,-20.394420,0 -43.499125,-20.394329,0 -43.500504,-20.393083,0 -43.500850,-20.392785,0 -43.501003,-20.392600,0 -43.501200,-20.392384,0 -43.501334,-20.392110,0 -43.501600,-20.391068,0 -43.503700,-20.390715,0 -43.503925,-20.390708,0 -43.504066,-20.390735,0 -43.504352,-20.390840,0 -43.504695,-20.390944,0 -43.505051,-20.391004,0 -43.505382,-20.390996,0 -43.505646,-20.390966,0 -43.506247,-20.390813,0 -43.506535,-20.390527,0 -43.506629,-20.390549,0 -43.506629,-20.390656,0 -43.506572,-20.390724,0 -43.506451,-20.390693,0 -43.506415,-20.390629,0 -43.506462,-20.390559,0 -43.506622,-20.390485,0 -43.506600,-20.390356,0 -43.506610,-20.390178,0 -43.506662,-20.389658,0 -43.506703,-20.389326,0 -43.506953,-20.387624,0 -43.507307,-20.387648,0 -43.507450,-20.387645,0 -43.507654,-20.387486,0 -43.507764,-20.387405,0 -43.508275,-20.387130,0 -43.508403,-20.387029,0 -43.508668,-20.386696,0 -43.508437,-20.386419,0 -43.508528,-20.386528,0 -43.508437,-20.386419,0 -43.509846,-20.385381,0 -43.510322,-20.385063,0 -43.510523,-20.384949,0 -43.510822,-20.384871,0 -43.511207,-20.384650,0 -43.511316,-20.384539,0 -43.511368,-20.384204,0 -43.511733,-20.384141,0 -43.512612,-20.383674,0 -43.512867,-20.383485,0 -43.513892,-20.383057,0 -43.513975,-20.383017,0 -43.514444,-20.382635,0 -43.514629,-20.382365,0 -43.514779,-20.382184,0 -43.515247,-20.381937,0 -43.515368,-20.381888,0 -43.516117,-20.381477,0 -43.516945,-20.381009,0 -43.517253,-20.380843,0 -43.517573,-20.380739,0 -43.518133,-20.380815,0 -43.518533,-20.380889,0 -43.518587,-20.380542,0 -43.517754,-20.380338,0 -43.517445,-20.379602,0 -43.517196,-20.379059,0 -43.516633,-20.378978,0 -43.516093,-20.378727,0 -43.515287,-20.378237,0 -43.515145,-20.378152,0 -43.514457,-20.377945,0 -43.514097,-20.377890,0 -43.513750,-20.377845,0 -43.513369,-20.377875,0 -43.512101,-20.378388,0 -43.511014,-20.378750,0 -43.510305,-20.378970,0 -43.509765,-20.379159,0 -43.509314,-20.379321,0 -43.508952,-20.379494,0 -43.507869,-20.380130,0 -43.507514,-20.380300,0 -43.507395,-20.380982,0 -43.507245,-20.380805,0 -43.507038,-20.380682,0 -43.506863,-20.380589,0 -43.506181,-20.380893,0 -43.505349,-20.381386,0 -43.504547,-20.382084,0 -43.504508,-20.382173,0 -43.504520,-20.382331,0 -43.504562,-20.382993,0 -43.504505,-20.383186,0 -43.504154,-20.383706,0 -43.503703,-20.384809,0 -43.503553,-20.384840,0 -43.503414,-20.384797,0 -43.503252,-20.384647,0 -43.503206,-20.384308,0 -43.503217,-20.383294,0 -43.503125,-20.383059,0 -43.502967,-20.382947,0 -43.502786,-20.382955,0 -43.502566,-20.382997,0 -43.502258,-20.382847,0 -43.502012,-20.382772,0 -43.501841,-20.382766,0 -43.500631,-20.383452,0 -43.500331,-20.383525,0 -43.500123,-20.383572,0 -43.499560,-20.383768,0 -43.499101,-20.383903,0 -43.498623,-20.383969,0 -43.498196,-20.384022,0 -43.497868,-20.384161,0 -43.497644,-20.384381,0 -43.497392,-20.384928,0 -43.497310,-20.384978,0 -43.497053,-20.385112,0 -43.495729,-20.385606,0 -43.495016,-20.386023,0 -43.494735,-20.386154,0 -43.494182,-20.386198,0 -43.494030,-20.386210,0 -43.493912,-20.386198,0 -43.493544,-20.386231,0 -43.493182,-20.386150,0 -43.492627,-20.386154,0 -43.492234,-20.386054,0 -43.491860,-20.386077,0 -43.491131,-20.386316,0 -43.490367,-20.386480,0 -43.490232,-20.386538,0 -43.489085,-20.386936,0 -43.488734,-20.386959,0 -43.487890,-20.386886,0 -43.486653,-20.386733,0 -43.486498,-20.386702,0 -43.486440,-20.386692,0 -43.486148,-20.386655,0 -43.484564,-20.386651,0 -43.483947,-20.386701,0 -43.483097,-20.386547,0 -43.482978,-20.386523,0 -43.480934,-20.386065,0 -43.480502,-20.386062,0 -43.480262,-20.386068,0 -43.479623,-20.386158,0 -43.479022,-20.386313,0 -43.478124,-20.386501,0 -43.475141,-20.387402,0 -43.474844,-20.387452,0 -43.473732,-20.387360,0 -43.473257,-20.387321,0 -43.472863,-20.387402,0 -43.472551,-20.387537,0 -43.471788,-20.388100,0 -43.471557,-20.388250,0 -43.471233,-20.388354,0 -43.470840,-20.388435,0 -43.469527,-20.388552,0 -43.469153,-20.388618,0 -43.468368,-20.388522,0        </coordinates>      </LineString>    </Placemark>    <Placemark> <name>PONTO FINAL COOPEROURO</name>  <styleUrl>#stylefirst</styleUrl>     <Point> <coordinates>-43.500880,-20.403260,0 </coordinates>  </Point>  </Placemark>    <Placemark> <name>PONTO  HOSPITAL</name>  <styleUrl>#colorstyle</styleUrl>     <Point> <coordinates>-43.509270,-20.406520,0 </coordinates>  </Point>  </Placemark>    <Placemark> <name>PONTO AUTO ESCOLA</name>  <styleUrl>#colorstyle</styleUrl>     <Point> <coordinates>-43.508880,-20.400280,0 </coordinates>  </Point>  </Placemark>    <Placemark> <name>PONTO UFOP</name>  <styleUrl>#colorstyle</styleUrl>     <Point> <coordinates>-43.508204,-20.398583,0 </coordinates>  </Point>  </Placemark>    <Placemark> <name>PONTO SANTANDER UFOP</name>  <styleUrl>#colorstyle</styleUrl>     <Point> <coordinates>-43.506645,-20.396049,0 </coordinates>  </Point>  </Placemark>    <Placemark> <name>PONTO IFMG</name>  <styleUrl>#colorstyle</styleUrl>     <Point> <coordinates>-43.500410,-20.395900,0 </coordinates>  </Point>  </Placemark>    <Placemark> <name>PONTO DA BARRA</name>  <styleUrl>#colorstyle</styleUrl>     <Point> <coordinates>-43.502330,-20.390970,0 </coordinates>  </Point>  </Placemark>    <Placemark> <name>PONTO ESTAÇÃO FERROVIÁRIA</name>  <styleUrl>#colorstyle</styleUrl>     <Point> <coordinates>-43.506461,-20.390727,0 </coordinates>  </Point>  </Placemark>    <Placemark> <name>PONTO PÃO DE QUEIJO</name>  <styleUrl>#colorstyle</styleUrl>     <Point> <coordinates>-43.503185,-20.384179,0 </coordinates>  </Point>  </Placemark>    <Placemark> <name>PONTO ALTO DA CRUZ</name>  <styleUrl>#colorstyle</styleUrl>     <Point> <coordinates>-43.494083,-20.386190,0 </coordinates>  </Point>  </Placemark>    <Placemark> <name>PONTO CHAFARIZ TAQUARAL</name>  <styleUrl>#colorstyle</styleUrl>     <Point> <coordinates>-43.483121,-20.386528,0 </coordinates>  </Point>  </Placemark>    <Placemark> <name>PONTO FINAL TAQUARAL</name>  <styleUrl>#stylelast</styleUrl>     <Point> <coordinates>-43.468210,-20.388500,0 </coordinates>  </Point>  </Placemark> </Folder></Document> </kml> 
