<?xml version="1.0" encoding="UTF-8"?> <kml xmlns="http://www.opengis.net/kml/2.2"> <Document> <Style id="colorstyle">     <IconStyle>        <color>5f000000</color>        <colorMode>0</colorMode>        <scale>0.7</scale>        <Icon>           <href>http://maps.google.com/mapfiles/kml/pal4/icon25.png</href>        </Icon>     </IconStyle>  </Style>  <Style id="stylefirst">     <IconStyle>        <color>64901200</color>        <scale>1.1</scale>        <Icon>           <href>http://google.com/mapfiles/ms/micons/flag.png</href>        </Icon>     </IconStyle>  </Style>  <Style id="stylelast">     <IconStyle>        <color>641400FF</color>        <scale>1.1</scale>        <Icon>           <href>http://google.com/mapfiles/ms/micons/flag.png</href>        </Icon>     </IconStyle>  </Style> <name>Itinerários</name><Folder><Style id="linestyle">   <LineStyle> <color>5aFF0000</color>    <width>4</width>   </LineStyle> </Style> <name>CONSORCIO ROTA REAL - TR - COOPEROURO X MORRO SAO SEBASTIAO - Ida</name> <open>1</open>    <Placemark>    <name> COOPEROURO X MORRO SÃO SEBASTIÃO </name>    <description><![CDATA[<div dir="ltr">Número 004 <br>Linha: COOPEROURO X MORRO SÃO SEBASTIÃO<br></div>]]></description>      <styleUrl>#linestyle</styleUrl>      <LineString>        <tessellate>1</tessellate>        <coordinates> -43.500880,-20.403260,0 -43.501060,-20.403140,0 -43.501137,-20.403152,0 -43.501621,-20.403246,0 -43.503425,-20.402452,0 -43.503903,-20.402267,0 -43.503903,-20.402267,0 -43.503903,-20.402267,0 -43.504030,-20.402237,0 -43.504030,-20.402237,0 -43.504030,-20.402237,0 -43.505081,-20.402277,0 -43.505208,-20.402322,0 -43.505208,-20.402322,0 -43.505208,-20.402322,0 -43.505682,-20.402588,0 -43.505682,-20.402588,0 -43.505682,-20.402588,0 -43.506287,-20.403120,0 -43.507515,-20.404921,0 -43.507620,-20.405678,0 -43.508053,-20.406849,0 -43.508568,-20.407097,0 -43.508568,-20.407097,0 -43.508568,-20.407097,0 -43.508759,-20.407141,0 -43.509212,-20.407089,0 -43.509254,-20.407024,0 -43.509263,-20.406813,0 -43.509263,-20.406813,0 -43.509263,-20.406813,0 -43.509397,-20.406605,0 -43.509397,-20.406605,0 -43.509397,-20.406605,0 -43.509415,-20.406548,0 -43.509415,-20.406548,0 -43.509415,-20.406548,0 -43.509853,-20.406176,0 -43.510410,-20.405424,0 -43.510500,-20.405190,0 -43.510677,-20.404949,0 -43.511005,-20.404848,0 -43.511307,-20.404766,0 -43.511761,-20.404106,0 -43.511738,-20.403862,0 -43.511763,-20.403922,0 -43.511020,-20.402713,0 -43.511020,-20.402713,0 -43.511020,-20.402713,0 -43.510963,-20.402676,0 -43.510915,-20.402647,0 -43.510915,-20.402647,0 -43.510915,-20.402647,0 -43.510803,-20.402600,0 -43.510803,-20.402600,0 -43.510803,-20.402600,0 -43.510704,-20.402599,0 -43.510571,-20.402693,0 -43.510220,-20.403038,0 -43.510220,-20.403038,0 -43.510220,-20.403038,0 -43.510113,-20.403172,0 -43.510124,-20.403187,0 -43.510422,-20.403460,0 -43.510498,-20.403463,0 -43.510803,-20.403358,0 -43.510830,-20.403330,0 -43.510883,-20.403215,0 -43.510885,-20.403103,0 -43.510885,-20.403103,0 -43.510885,-20.403103,0 -43.510830,-20.402998,0 -43.510670,-20.402828,0 -43.510667,-20.402828,0 -43.510559,-20.402693,0 -43.510578,-20.402655,0 -43.510613,-20.402610,0 -43.510654,-20.402529,0 -43.510635,-20.402487,0 -43.510593,-20.402453,0 -43.510593,-20.402453,0 -43.510593,-20.402453,0 -43.510370,-20.402117,0 -43.510370,-20.402117,0 -43.510370,-20.402117,0 -43.509978,-20.401648,0 -43.509978,-20.401648,0 -43.509978,-20.401648,0 -43.509015,-20.400470,0 -43.508953,-20.400395,0 -43.508953,-20.400395,0 -43.508953,-20.400395,0 -43.508743,-20.400118,0 -43.508703,-20.400072,0 -43.508703,-20.400072,0 -43.508703,-20.400072,0 -43.507830,-20.399225,0 -43.507830,-20.399225,0 -43.507830,-20.399225,0 -43.507200,-20.398582,0 -43.507200,-20.398582,0 -43.507200,-20.398582,0 -43.507012,-20.398460,0 -43.507012,-20.398460,0 -43.507012,-20.398460,0 -43.506832,-20.398347,0 -43.506832,-20.398347,0 -43.506832,-20.398347,0 -43.506782,-20.398310,0 -43.506782,-20.398310,0 -43.506782,-20.398310,0 -43.506757,-20.398152,0 -43.506756,-20.398151,0 -43.506757,-20.398152,0 -43.506757,-20.398152,0 -43.506989,-20.397814,0 -43.507076,-20.397825,0 -43.507458,-20.398281,0 -43.507515,-20.398362,0 -43.507881,-20.398685,0 -43.509333,-20.398730,0 -43.511337,-20.398750,0 -43.512138,-20.398743,0 -43.512196,-20.398693,0 -43.512218,-20.398594,0 -43.512207,-20.398402,0 -43.512223,-20.396893,0 -43.512227,-20.396835,0 -43.512203,-20.394962,0 -43.512104,-20.394936,0 -43.512103,-20.394935,0 -43.512103,-20.394935,0 -43.512103,-20.394935,0 -43.511993,-20.394935,0 -43.511993,-20.394935,0 -43.511993,-20.394935,0 -43.511792,-20.394938,0 -43.511792,-20.394938,0 -43.511792,-20.394938,0 -43.511000,-20.394928,0 -43.511000,-20.394928,0 -43.511000,-20.394928,0 -43.509945,-20.394966,0 -43.509273,-20.395848,0 -43.509263,-20.395862,0 -43.509263,-20.395862,0 -43.509263,-20.395862,0 -43.509218,-20.395915,0 -43.509218,-20.395915,0 -43.509218,-20.395915,0 -43.508934,-20.396065,0 -43.507232,-20.396063,0 -43.506658,-20.396060,0 -43.506658,-20.396060,0 -43.506658,-20.396060,0 -43.506537,-20.396040,0 -43.506504,-20.396059,0 -43.506537,-20.396040,0 -43.506537,-20.396040,0 -43.506474,-20.396122,0 -43.506454,-20.397314,0 -43.506455,-20.397315,0 -43.506611,-20.397514,0 -43.507225,-20.398046,0 -43.507187,-20.398113,0 -43.506868,-20.398250,0 -43.506775,-20.398282,0 -43.506775,-20.398282,0 -43.506775,-20.398282,0 -43.506775,-20.398281,0 -43.506645,-20.398256,0 -43.506608,-20.398230,0 -43.506608,-20.398230,0 -43.506608,-20.398230,0 -43.505993,-20.398067,0 -43.505542,-20.398165,0 -43.503944,-20.397959,0 -43.502940,-20.397095,0 -43.501187,-20.396175,0 -43.500852,-20.396045,0 -43.500487,-20.395925,0 -43.500487,-20.395925,0 -43.500487,-20.395925,0 -43.500221,-20.395901,0 -43.500220,-20.395902,0 -43.500220,-20.395902,0 -43.500220,-20.395902,0 -43.499800,-20.395965,0 -43.499800,-20.395965,0 -43.499800,-20.395965,0 -43.499577,-20.395926,0 -43.499532,-20.395892,0 -43.499532,-20.395892,0 -43.499532,-20.395892,0 -43.498936,-20.395254,0 -43.498932,-20.395061,0 -43.499002,-20.394792,0 -43.499002,-20.394792,0 -43.499002,-20.394792,0 -43.499015,-20.394728,0 -43.499015,-20.394728,0 -43.499015,-20.394728,0 -43.499214,-20.394365,0 -43.500292,-20.393397,0 -43.500292,-20.393397,0 -43.500292,-20.393397,0 -43.500510,-20.393198,0 -43.500510,-20.393198,0 -43.500510,-20.393198,0 -43.501396,-20.392242,0 -43.501388,-20.392267,0 -43.501482,-20.391878,0 -43.501553,-20.391518,0 -43.501620,-20.391203,0 -43.501728,-20.391020,0 -43.501728,-20.391020,0 -43.501728,-20.391020,0 -43.501728,-20.391020,0 -43.501801,-20.391010,0 -43.502058,-20.391010,0 -43.502058,-20.391010,0 -43.502058,-20.391010,0 -43.502223,-20.390987,0 -43.502223,-20.390987,0 -43.502223,-20.390987,0 -43.502468,-20.390958,0 -43.502538,-20.390957,0 -43.502538,-20.390957,0 -43.502538,-20.390957,0 -43.503802,-20.390770,0 -43.504030,-20.390783,0 -43.504030,-20.390783,0 -43.504030,-20.390783,0 -43.504350,-20.390870,0 -43.504350,-20.390870,0 -43.504350,-20.390870,0 -43.506117,-20.390877,0 -43.506275,-20.390808,0 -43.506320,-20.390783,0 -43.506320,-20.390783,0 -43.506320,-20.390783,0 -43.506672,-20.390623,0 -43.506703,-20.390650,0 -43.506703,-20.390650,0 -43.506703,-20.390650,0 -43.506721,-20.390684,0 -43.506710,-20.390749,0 -43.506677,-20.390780,0 -43.506677,-20.390780,0 -43.506677,-20.390780,0 -43.506588,-20.390797,0 -43.506523,-20.390760,0 -43.506496,-20.390705,0 -43.506523,-20.390619,0 -43.506588,-20.390598,0 -43.506653,-20.390541,0 -43.506638,-20.390567,0 -43.506653,-20.390471,0 -43.506653,-20.390470,0 -43.506653,-20.390470,0 -43.506653,-20.390470,0 -43.506728,-20.389782,0 -43.506728,-20.389782,0 -43.506728,-20.389782,0 -43.506657,-20.389610,0 -43.506462,-20.389332,0 -43.506462,-20.389332,0 -43.506462,-20.389332,0 -43.505727,-20.388360,0 -43.505313,-20.387785,0 -43.505262,-20.387732,0 -43.505247,-20.387712,0 -43.505247,-20.387712,0 -43.505247,-20.387712,0 -43.505032,-20.387524,0 -43.504978,-20.387522,0 -43.504978,-20.387522,0 -43.504978,-20.387522,0 -43.504978,-20.387522,0 -43.504978,-20.387522,0 -43.504978,-20.387522,0 -43.504929,-20.387531,0 -43.504830,-20.387568,0 -43.504830,-20.387568,0 -43.504830,-20.387568,0 -43.504295,-20.387527,0 -43.504242,-20.387476,0 -43.504148,-20.387130,0 -43.504123,-20.387005,0 -43.504123,-20.387005,0 -43.504123,-20.387005,0 -43.504116,-20.386913,0 -43.504128,-20.386738,0 -43.504128,-20.386738,0 -43.504128,-20.386738,0 -43.504066,-20.386663,0 -43.503760,-20.386487,0 -43.503760,-20.386487,0 -43.503760,-20.386487,0 -43.503610,-20.386403,0 -43.503610,-20.386403,0 -43.503610,-20.386403,0 -43.503586,-20.386337,0 -43.503525,-20.385707,0 -43.503525,-20.385707,0 -43.503525,-20.385707,0 -43.503490,-20.385435,0 -43.503490,-20.385435,0 -43.503490,-20.385435,0 -43.503391,-20.384741,0 -43.503297,-20.384637,0 -43.503252,-20.384518,0 -43.503250,-20.384495,0 -43.503243,-20.384282,0 -43.503243,-20.384282,0 -43.503243,-20.384282,0 -43.503285,-20.384043,0 -43.503285,-20.384043,0 -43.503285,-20.384043,0 -43.503298,-20.383897,0 -43.503298,-20.383897,0 -43.503298,-20.383897,0 -43.503303,-20.383720,0 -43.503303,-20.383720,0 -43.503303,-20.383720,0 -43.503113,-20.383013,0 -43.502979,-20.382984,0 -43.502815,-20.382987,0 -43.501090,-20.383210,0 -43.499843,-20.383653,0 -43.499747,-20.383683,0 -43.499747,-20.383683,0 -43.499747,-20.383683,0 -43.499657,-20.383715,0 -43.499657,-20.383715,0 -43.499657,-20.383715,0 -43.498042,-20.384092,0 -43.497871,-20.384180,0 -43.497585,-20.384451,0 -43.497502,-20.384730,0 -43.497425,-20.384830,0 -43.497407,-20.384833,0 -43.497407,-20.384833,0 -43.497407,-20.384833,0 -43.497125,-20.384928,0 -43.497045,-20.384933,0 -43.497045,-20.384933,0 -43.497045,-20.384933,0 -43.496975,-20.384935,0 -43.496464,-20.384787,0 -43.496187,-20.384487,0 -43.496117,-20.384480,0 -43.495387,-20.384625,0 -43.494372,-20.384612,0 -43.494167,-20.384556,0 -43.494008,-20.384487,0 -43.492813,-20.383955,0 -43.492466,-20.383698,0 -43.492378,-20.383278,0 -43.492153,-20.383162,0 -43.492018,-20.383123,0 -43.491140,-20.382677,0 -43.491001,-20.382698,0 -43.490414,-20.382782,0 -43.489857,-20.382601,0 -43.489773,-20.382711,0 -43.489620,-20.382866,0 -43.489588,-20.382880,0 -43.488403,-20.383167,0 -43.488262,-20.383103,0 -43.488262,-20.383082,0 -43.487805,-20.382925,0 -43.487805,-20.382925,0 -43.487805,-20.382925,0 -43.487350,-20.382857,0 -43.487350,-20.382857,0 -43.487350,-20.382857,0 -43.486765,-20.382697,0 -43.486010,-20.382405,0 -43.485355,-20.381993,0 -43.484886,-20.381706,0 -43.484598,-20.381040,0 -43.484512,-20.380796,0 -43.484318,-20.380495,0 -43.484047,-20.380224,0 -43.484070,-20.380054,0 -43.484068,-20.380055,0 -43.484207,-20.379868,0 -43.484566,-20.379478,0 -43.484535,-20.379307,0 -43.484365,-20.379105,0 -43.484028,-20.378672,0 -43.483020,-20.378190,0 -43.482047,-20.377990,0 -43.482037,-20.377972,0 -43.481162,-20.377210,0 -43.481167,-20.377182,0 -43.481167,-20.377180,0 -43.481167,-20.377177,0 -43.481098,-20.377069,0 -43.480080,-20.375980,0 -43.479984,-20.375771,0 -43.480045,-20.375704,0 -43.480091,-20.375706,0 -43.480309,-20.375860,0 -43.481148,-20.376232,0 -43.481388,-20.376210,0 -43.482182,-20.376150,0 -43.482633,-20.375868,0 -43.483109,-20.375725,0 -43.484762,-20.376152,0 -43.485336,-20.376310,0 -43.485688,-20.376173,0 -43.486223,-20.376158,0 -43.486223,-20.376158,0 -43.486223,-20.376158,0 -43.486575,-20.376018,0 -43.486575,-20.376018,0 -43.486575,-20.376018,0 -43.489888,-20.375600,0 -43.490124,-20.375656,0 -43.493245,-20.376240,0 -43.496593,-20.376523,0 -43.497211,-20.376465,0 -43.498085,-20.376360,0 -43.498497,-20.376389,0 -43.498562,-20.376355,0 -43.499668,-20.376276,0 -43.499943,-20.376410,0 -43.499943,-20.376410,0 -43.499943,-20.376410,0 -43.500324,-20.376436,0 -43.500431,-20.376377,0 -43.500505,-20.376303,0 -43.500637,-20.376169,0 -43.500715,-20.375873,0 -43.500715,-20.375873,0 -43.500715,-20.375873,0 -43.500866,-20.375593,0 -43.501675,-20.375098,0 -43.501675,-20.375098,0 -43.501675,-20.375098,0 -43.501870,-20.374918,0 -43.501870,-20.374918,0 -43.501870,-20.374918,0 -43.503143,-20.374388,0 -43.503445,-20.374363,0 -43.503445,-20.374363,0 -43.503445,-20.374363,0 -43.503624,-20.374247,0 -43.503625,-20.374247,0 -43.503625,-20.374247,0 -43.503625,-20.374247,0 -43.504848,-20.373332,0        </coordinates>      </LineString>    </Placemark>    <Placemark> <name>PONTO FINAL COOPEROURO</name>  <styleUrl>#stylefirst</styleUrl>     <Point> <coordinates>-43.500880,-20.403260,0 </coordinates>  </Point>  </Placemark>    <Placemark> <name>PONTO  HOSPITAL</name>  <styleUrl>#colorstyle</styleUrl>     <Point> <coordinates>-43.509270,-20.406520,0 </coordinates>  </Point>  </Placemark>    <Placemark> <name>PONTO PORTARIA UFOP</name>  <styleUrl>#colorstyle</styleUrl>     <Point> <coordinates>-43.506708,-20.398258,0 </coordinates>  </Point>  </Placemark>    <Placemark> <name>PONTO DA BARRA</name>  <styleUrl>#colorstyle</styleUrl>     <Point> <coordinates>-43.502330,-20.390970,0 </coordinates>  </Point>  </Placemark>    <Placemark> <name>PONTO ESTAÇÃO FERROVIÁRIA</name>  <styleUrl>#colorstyle</styleUrl>     <Point> <coordinates>-43.506461,-20.390727,0 </coordinates>  </Point>  </Placemark>    <Placemark> <name>PONTO CHOOPERIA OP</name>  <styleUrl>#colorstyle</styleUrl>     <Point> <coordinates>-43.503260,-20.383830,0 </coordinates>  </Point>  </Placemark>    <Placemark> <name>PONTO ZOCA</name>  <styleUrl>#colorstyle</styleUrl>     <Point> <coordinates>-43.497242,-20.384944,0 </coordinates>  </Point>  </Placemark>    <Placemark> <name>Ponto Rio das Velhas / RJ</name>  <styleUrl>#colorstyle</styleUrl>     <Point> <coordinates>-43.503480,-20.374300,0 </coordinates>  </Point>  </Placemark>    <Placemark> <name>ponto final Morro são sebastião</name>  <styleUrl>#colorstyle</styleUrl>     <Point> <coordinates>-43.504200,-20.373680,0 </coordinates>  </Point>  </Placemark>    <Placemark> <name>PONTO FINAL MORRO SÃO SEBASTIÃO</name>  <styleUrl>#stylelast</styleUrl>     <Point> <coordinates>-43.505040,-20.373120,0 </coordinates>  </Point>  </Placemark> </Folder></Document> </kml> 
