<?xml version="1.0" encoding="UTF-8"?> <kml xmlns="http://www.opengis.net/kml/2.2"> <Document> <Style id="colorstyle">     <IconStyle>        <color>5f000000</color>        <colorMode>0</colorMode>        <scale>0.7</scale>        <Icon>           <href>http://maps.google.com/mapfiles/kml/pal4/icon25.png</href>        </Icon>     </IconStyle>  </Style>  <Style id="stylefirst">     <IconStyle>        <color>64901200</color>        <scale>1.1</scale>        <Icon>           <href>http://google.com/mapfiles/ms/micons/flag.png</href>        </Icon>     </IconStyle>  </Style>  <Style id="stylelast">     <IconStyle>        <color>641400FF</color>        <scale>1.1</scale>        <Icon>           <href>http://google.com/mapfiles/ms/micons/flag.png</href>        </Icon>     </IconStyle>  </Style> <name>Itinerários</name><Folder><Style id="linestyle">   <LineStyle> <color>5aFF901E</color>    <width>4</width>   </LineStyle> </Style> <name>DISTRITAL - OURO PRETO - LAVRAS NOVAS X  OURO PRETO  - Ida</name> <open>1</open>    <Placemark>    <name> LAVRAS NOVAS X  OURO PRETO  </name>    <description><![CDATA[<div dir="ltr">Número 024 <br>Linha: LAVRAS NOVAS X  OURO PRETO <br></div>]]></description>      <styleUrl>#linestyle</styleUrl>      <LineString>        <tessellate>1</tessellate>        <coordinates> -43.517870,-20.477190,0 -43.517667,-20.477247,0 -43.516852,-20.477445,0 -43.516346,-20.477509,0 -43.515458,-20.477408,0 -43.515316,-20.477369,0 -43.515305,-20.477324,0 -43.515347,-20.477289,0 -43.515377,-20.477274,0 -43.516403,-20.477224,0 -43.517095,-20.477415,0 -43.517204,-20.477394,0 -43.518452,-20.476952,0 -43.519264,-20.476452,0 -43.519683,-20.476267,0 -43.522560,-20.475546,0 -43.522697,-20.475168,0 -43.522790,-20.474413,0 -43.522751,-20.473728,0 -43.521183,-20.471684,0 -43.521084,-20.471132,0 -43.520702,-20.470157,0 -43.520645,-20.469923,0 -43.520683,-20.469873,0 -43.520752,-20.469870,0 -43.522053,-20.470009,0 -43.522350,-20.469803,0 -43.522373,-20.469721,0 -43.522343,-20.469637,0 -43.522060,-20.469097,0 -43.521827,-20.467318,0 -43.521912,-20.465992,0 -43.522465,-20.465084,0 -43.522366,-20.465014,0 -43.521927,-20.464861,0 -43.521927,-20.464809,0 -43.521999,-20.464720,0 -43.522335,-20.464622,0 -43.522823,-20.464685,0 -43.522915,-20.464705,0 -43.523113,-20.464577,0 -43.523556,-20.464323,0 -43.523838,-20.464293,0 -43.523891,-20.464157,0 -43.524094,-20.463245,0 -43.524502,-20.463037,0 -43.524412,-20.463065,0 -43.525452,-20.462801,0 -43.526134,-20.462885,0 -43.526402,-20.462866,0 -43.526569,-20.462971,0 -43.526970,-20.463270,0 -43.528133,-20.463078,0 -43.528439,-20.462780,0 -43.530032,-20.459955,0 -43.531704,-20.458767,0 -43.533672,-20.457638,0 -43.535049,-20.456312,0 -43.535293,-20.456285,0 -43.539211,-20.454954,0 -43.540180,-20.455076,0 -43.545815,-20.452055,0 -43.548085,-20.452168,0 -43.549187,-20.452631,0 -43.550686,-20.453835,0 -43.551228,-20.453764,0 -43.551708,-20.453360,0 -43.552498,-20.451994,0 -43.553146,-20.452095,0 -43.555382,-20.452238,0 -43.555836,-20.451971,0 -43.555893,-20.451838,0 -43.555965,-20.450962,0 -43.556465,-20.450252,0 -43.556519,-20.449987,0 -43.556973,-20.448092,0 -43.562442,-20.443080,0 -43.563512,-20.441443,0 -43.563663,-20.441059,0 -43.563644,-20.440989,0 -43.563568,-20.440928,0 -43.563193,-20.440787,0 -43.561539,-20.439726,0 -43.558112,-20.434843,0 -43.557083,-20.433842,0 -43.556389,-20.433653,0 -43.556362,-20.433401,0 -43.556362,-20.432665,0 -43.556137,-20.432537,0 -43.555332,-20.432371,0 -43.555157,-20.432018,0 -43.556015,-20.428067,0 -43.556448,-20.426227,0 -43.556617,-20.425267,0 -43.556221,-20.422798,0 -43.553753,-20.420664,0 -43.550992,-20.420418,0 -43.547707,-20.419685,0 -43.544273,-20.417358,0 -43.543682,-20.417398,0 -43.542992,-20.417418,0 -43.540501,-20.417431,0 -43.540500,-20.417432,0 -43.535103,-20.418350,0 -43.532433,-20.418171,0 -43.528797,-20.419305,0 -43.527645,-20.419626,0 -43.527241,-20.419395,0 -43.527130,-20.419138,0 -43.527206,-20.418871,0 -43.527493,-20.418278,0 -43.526475,-20.413383,0 -43.526488,-20.411842,0 -43.526403,-20.411563,0 -43.526451,-20.407206,0 -43.526180,-20.407049,0 -43.525902,-20.406968,0 -43.522493,-20.404290,0 -43.522142,-20.404028,0 -43.521873,-20.403833,0 -43.521580,-20.403622,0 -43.521187,-20.403507,0 -43.521179,-20.403427,0 -43.521194,-20.403255,0 -43.521080,-20.403052,0 -43.520508,-20.401880,0 -43.520445,-20.401678,0 -43.520439,-20.401644,0 -43.520440,-20.401643,0 -43.519790,-20.400375,0 -43.519753,-20.400303,0 -43.519018,-20.398828,0 -43.518970,-20.398718,0 -43.518845,-20.398609,0 -43.518623,-20.398478,0 -43.518538,-20.398458,0 -43.518440,-20.398277,0 -43.518482,-20.398172,0 -43.518520,-20.398151,0 -43.518555,-20.398151,0 -43.518608,-20.398184,0 -43.518829,-20.398582,0 -43.518806,-20.398685,0 -43.518520,-20.398868,0 -43.516320,-20.400810,0 -43.515392,-20.401781,0 -43.512184,-20.403414,0 -43.512033,-20.403343,0 -43.510917,-20.402555,0 -43.510392,-20.402460,0 -43.510028,-20.402398,0 -43.509783,-20.402372,0 -43.509763,-20.402352,0 -43.507363,-20.401770,0 -43.507255,-20.401755,0 -43.506695,-20.401529,0 -43.506587,-20.401412,0 -43.506532,-20.401348,0 -43.505718,-20.400696,0 -43.504953,-20.400608,0 -43.504932,-20.400608,0 -43.504880,-20.400608,0 -43.504826,-20.400623,0 -43.504787,-20.400631,0 -43.504618,-20.400587,0 -43.504470,-20.400557,0 -43.504192,-20.400383,0 -43.503625,-20.399257,0 -43.503515,-20.398990,0 -43.502405,-20.397555,0 -43.502357,-20.397515,0 -43.502197,-20.397412,0 -43.501487,-20.396617,0 -43.501367,-20.396442,0 -43.500870,-20.396065,0 -43.500470,-20.395947,0 -43.500173,-20.395928,0 -43.499735,-20.395985,0 -43.499523,-20.395918,0 -43.499477,-20.395874,0 -43.499277,-20.395667,0 -43.498901,-20.395218,0 -43.498962,-20.394917,0 -43.499005,-20.394723,0 -43.499077,-20.394468,0 -43.500208,-20.393445,0 -43.500482,-20.393202,0 -43.501567,-20.391335,0 -43.501701,-20.390999,0 -43.501740,-20.390993,0 -43.502092,-20.391015,0 -43.502250,-20.390995,0 -43.502515,-20.390955,0 -43.504047,-20.390785,0 -43.504090,-20.390795,0 -43.504333,-20.390870,0 -43.505981,-20.390942,0 -43.506228,-20.390852,0 -43.506323,-20.390797,0 -43.506641,-20.390621,0 -43.506691,-20.390671,0 -43.506690,-20.390670,0 -43.506683,-20.390739,0 -43.506634,-20.390787,0 -43.506633,-20.390787,0 -43.506367,-20.390737,0 -43.506330,-20.390705,0 -43.506328,-20.390703,0 -43.506228,-20.390742,0 -43.505096,-20.391006,0 -43.504103,-20.390780,0 -43.503898,-20.390740,0 -43.502407,-20.390977,0 -43.502307,-20.390987,0 -43.502137,-20.391003,0 -43.502023,-20.391018,0 -43.501685,-20.391087,0 -43.501637,-20.391108,0 -43.501610,-20.391144,0 -43.500392,-20.393218,0 -43.500075,-20.393518,0 -43.499620,-20.393912,0 -43.498965,-20.394787,0 -43.498925,-20.394938,0 -43.498878,-20.395222,0 -43.498943,-20.395332,0 -43.499563,-20.395943,0 -43.499638,-20.395967,0 -43.499858,-20.395962,0 -43.500252,-20.395902,0 -43.500603,-20.395973,0 -43.501301,-20.396297,0 -43.501367,-20.396417,0 -43.501417,-20.396505,0 -43.501522,-20.396653,0 -43.502242,-20.397462,0 -43.502392,-20.397593,0 -43.503542,-20.399080,0 -43.503675,-20.399375,0 -43.504448,-20.400564,0 -43.504385,-20.400540,0 -43.504607,-20.400595,0 -43.504687,-20.400608,0 -43.505703,-20.401136,0 -43.506010,-20.401517,0 -43.506133,-20.401685,0 -43.506142,-20.401737,0 -43.506130,-20.401772,0 -43.506058,-20.401814,0 -43.505697,-20.401937,0 -43.505547,-20.402031,0 -43.505337,-20.402384,0 -43.505257,-20.402388,0 -43.504823,-20.402255,0 -43.504123,-20.402242,0 -43.503723,-20.402334,0 -43.500553,-20.403881,0 -43.500568,-20.403975,0        </coordinates>      </LineString>    </Placemark>    <Placemark> <name>PONTO RUA DO CHÁ</name>  <styleUrl>#stylefirst</styleUrl>     <Point> <coordinates>-43.517870,-20.477190,0 </coordinates>  </Point>  </Placemark>    <Placemark> <name>PONTO LAVRAS NOVAS </name>  <styleUrl>#colorstyle</styleUrl>     <Point> <coordinates>-43.522510,-20.475490,0 </coordinates>  </Point>  </Placemark>    <Placemark> <name>RANCHARIA </name>  <styleUrl>#colorstyle</styleUrl>     <Point> <coordinates>-43.555612,-20.430014,0 </coordinates>  </Point>  </Placemark>    <Placemark> <name>PONTO FINAL SARAMENHA</name>  <styleUrl>#colorstyle</styleUrl>     <Point> <coordinates>-43.526370,-20.412540,0 </coordinates>  </Point>  </Placemark>    <Placemark> <name>TERMINAL NOVELIS</name>  <styleUrl>#colorstyle</styleUrl>     <Point> <coordinates>-43.518730,-20.398500,0 </coordinates>  </Point>  </Placemark>    <Placemark> <name>PONTO ESTAÇÃO FERROVIÁRIA</name>  <styleUrl>#colorstyle</styleUrl>     <Point> <coordinates>-43.506461,-20.390727,0 </coordinates>  </Point>  </Placemark>    <Placemark> <name>GARAGEM TRANSCOTTA</name>  <styleUrl>#stylelast</styleUrl>     <Point> <coordinates>-43.500910,-20.404590,0 </coordinates>  </Point>  </Placemark> </Folder></Document> </kml> 
