<?xml version="1.0" encoding="UTF-8"?> <kml xmlns="http://www.opengis.net/kml/2.2"> <Document> <Style id="colorstyle">     <IconStyle>        <color>5f000000</color>        <colorMode>0</colorMode>        <scale>0.7</scale>        <Icon>           <href>http://maps.google.com/mapfiles/kml/pal4/icon25.png</href>        </Icon>     </IconStyle>  </Style>  <Style id="stylefirst">     <IconStyle>        <color>64901200</color>        <scale>1.1</scale>        <Icon>           <href>http://google.com/mapfiles/ms/micons/flag.png</href>        </Icon>     </IconStyle>  </Style>  <Style id="stylelast">     <IconStyle>        <color>641400FF</color>        <scale>1.1</scale>        <Icon>           <href>http://google.com/mapfiles/ms/micons/flag.png</href>        </Icon>     </IconStyle>  </Style> <name>Itinerários</name><Folder><Style id="linestyle">   <LineStyle> <color>5aFF0000</color>    <width>4</width>   </LineStyle> </Style> <name>DISTRITAL - OURO PRETO - OURO PRETO X CACHOEIRA DO CAMPO - Ida</name> <open>1</open>    <Placemark>    <name> OURO PRETO X CACHOEIRA DO CAMPO </name>    <description><![CDATA[<div dir="ltr">Número 010 <br>Linha: OURO PRETO X CACHOEIRA DO CAMPO<br></div>]]></description>      <styleUrl>#linestyle</styleUrl>      <LineString>        <tessellate>1</tessellate>        <coordinates> -43.507999,-20.380923,0 -43.507555,-20.380553,0 -43.507538,-20.380643,0 -43.507538,-20.380643,0 -43.507538,-20.380643,0 -43.507470,-20.380887,0 -43.507470,-20.380887,0 -43.507470,-20.380887,0 -43.507460,-20.381023,0 -43.507460,-20.381023,0 -43.507460,-20.381023,0 -43.507488,-20.381124,0 -43.507575,-20.381223,0 -43.507603,-20.381239,0 -43.507575,-20.381223,0 -43.507575,-20.381223,0 -43.507702,-20.381254,0 -43.507805,-20.381186,0 -43.507839,-20.381094,0 -43.507813,-20.381014,0 -43.507732,-20.380955,0 -43.507730,-20.380965,0 -43.507725,-20.380970,0 -43.507727,-20.380970,0 -43.507727,-20.380970,0 -43.507962,-20.380935,0 -43.507692,-20.380862,0 -43.507830,-20.380785,0 -43.507910,-20.380782,0 -43.507866,-20.380812,0 -43.507866,-20.380812,0 -43.507870,-20.380938,0 -43.507805,-20.380911,0 -43.507805,-20.380865,0 -43.507985,-20.380460,0 -43.507985,-20.380460,0 -43.507985,-20.380460,0 -43.507923,-20.380274,0 -43.507843,-20.380255,0 -43.507664,-20.380310,0 -43.507553,-20.380413,0 -43.507413,-20.380837,0 -43.507413,-20.380837,0 -43.507413,-20.380837,0 -43.507339,-20.380846,0 -43.507252,-20.380800,0 -43.507252,-20.380800,0 -43.507252,-20.380800,0 -43.507252,-20.380800,0 -43.507128,-20.380720,0 -43.507128,-20.380720,0 -43.507128,-20.380720,0 -43.507019,-20.380598,0 -43.507034,-20.380552,0 -43.507122,-20.380474,0 -43.507248,-20.380417,0 -43.507248,-20.380417,0 -43.507248,-20.380417,0 -43.508368,-20.379892,0 -43.510857,-20.378893,0 -43.510857,-20.378893,0 -43.510857,-20.378893,0 -43.511155,-20.378803,0 -43.511155,-20.378803,0 -43.511155,-20.378803,0 -43.512750,-20.378242,0 -43.513802,-20.377903,0 -43.514202,-20.377897,0 -43.514202,-20.377897,0 -43.514202,-20.377897,0 -43.514510,-20.377953,0 -43.514510,-20.377953,0 -43.514510,-20.377953,0 -43.515198,-20.378153,0 -43.515227,-20.378168,0 -43.515227,-20.378168,0 -43.515227,-20.378168,0 -43.515333,-20.378220,0 -43.515333,-20.378220,0 -43.515333,-20.378220,0 -43.516605,-20.378900,0 -43.516605,-20.378900,0 -43.516605,-20.378900,0 -43.516912,-20.378975,0 -43.517180,-20.379008,0 -43.517180,-20.379008,0 -43.517180,-20.379008,0 -43.518175,-20.379090,0 -43.518175,-20.379090,0 -43.518175,-20.379090,0 -43.518395,-20.379102,0 -43.518395,-20.379102,0 -43.518395,-20.379102,0 -43.521428,-20.379908,0 -43.521468,-20.379937,0 -43.521468,-20.379937,0 -43.521468,-20.379937,0 -43.521718,-20.380138,0 -43.521718,-20.380138,0 -43.521718,-20.380138,0 -43.523712,-20.381453,0 -43.524197,-20.381258,0 -43.525002,-20.380121,0 -43.525383,-20.379168,0 -43.525383,-20.379168,0 -43.525383,-20.379168,0 -43.525860,-20.378565,0 -43.526040,-20.378470,0 -43.526040,-20.378470,0 -43.526040,-20.378470,0 -43.526730,-20.378323,0 -43.528839,-20.377975,0 -43.528840,-20.377975,0 -43.534153,-20.375151,0 -43.534725,-20.375362,0 -43.536484,-20.376755,0 -43.538975,-20.375823,0 -43.540808,-20.375003,0 -43.540808,-20.375003,0 -43.540808,-20.375003,0 -43.541687,-20.374670,0 -43.541687,-20.374670,0 -43.541687,-20.374670,0 -43.542465,-20.374338,0 -43.542465,-20.374338,0 -43.542465,-20.374338,0 -43.543120,-20.374077,0 -43.543120,-20.374077,0 -43.543120,-20.374077,0 -43.545433,-20.374048,0 -43.549072,-20.376169,0 -43.549698,-20.375957,0 -43.550493,-20.375372,0 -43.560912,-20.368427,0 -43.560912,-20.368427,0 -43.560912,-20.368427,0 -43.561015,-20.368353,0 -43.561015,-20.368353,0 -43.561015,-20.368353,0 -43.565207,-20.367300,0 -43.567795,-20.367130,0 -43.568974,-20.367430,0 -43.572460,-20.369759,0 -43.575199,-20.370096,0 -43.576913,-20.371698,0 -43.589783,-20.377409,0 -43.595513,-20.377302,0 -43.607353,-20.378929,0 -43.607746,-20.378403,0 -43.608601,-20.377022,0 -43.608602,-20.377022,0 -43.609692,-20.375616,0 -43.610352,-20.374760,0 -43.611286,-20.374622,0 -43.616570,-20.375126,0 -43.617438,-20.375658,0 -43.617438,-20.375658,0 -43.617438,-20.375658,0 -43.619123,-20.376200,0 -43.619472,-20.376285,0 -43.619472,-20.376285,0 -43.619472,-20.376285,0 -43.621353,-20.376715,0 -43.622616,-20.376341,0 -43.624554,-20.375681,0 -43.626713,-20.375456,0 -43.629520,-20.372962,0 -43.629520,-20.372962,0 -43.629520,-20.372962,0 -43.629593,-20.372828,0 -43.629767,-20.372683,0 -43.629767,-20.372683,0 -43.629767,-20.372683,0 -43.630066,-20.372263,0 -43.630920,-20.369776,0 -43.635139,-20.368494,0 -43.636307,-20.368696,0 -43.640062,-20.370787,0 -43.640453,-20.370785,0 -43.641556,-20.370371,0 -43.649254,-20.364559,0 -43.650842,-20.363857,0 -43.657648,-20.360968,0 -43.657648,-20.360968,0 -43.657648,-20.360968,0 -43.658210,-20.360803,0 -43.658210,-20.360803,0 -43.658210,-20.360803,0 -43.659828,-20.360077,0 -43.660198,-20.359812,0 -43.661301,-20.358332,0 -43.661627,-20.356752,0 -43.661627,-20.356752,0 -43.661627,-20.356752,0 -43.661748,-20.356083,0 -43.661748,-20.356083,0 -43.661748,-20.356083,0 -43.662258,-20.355260,0 -43.662258,-20.355260,0 -43.662258,-20.355260,0 -43.662770,-20.354765,0 -43.662770,-20.354765,0 -43.662770,-20.354765,0 -43.663490,-20.354160,0 -43.664685,-20.353500,0 -43.666653,-20.352131,0 -43.666630,-20.351875,0 -43.666512,-20.351746,0 -43.666513,-20.351745,0 -43.666513,-20.351745,0 -43.666513,-20.351745,0 -43.666462,-20.351720,0 -43.666462,-20.351720,0 -43.666462,-20.351720,0 -43.666348,-20.351700,0        </coordinates>      </LineString>    </Placemark>    <Placemark> <name>RODOVIÁRIA OURO PRETO</name>  <styleUrl>#stylefirst</styleUrl>     <Point> <coordinates>-43.507999,-20.380923,0 </coordinates>  </Point>  </Placemark>    <Placemark> <name>Ponto São Bartolomeu</name>  <styleUrl>#colorstyle</styleUrl>     <Point> <coordinates>-43.540715,-20.375113,0 </coordinates>  </Point>  </Placemark>    <Placemark> <name>SESC</name>  <styleUrl>#colorstyle</styleUrl>     <Point> <coordinates>-43.560828,-20.368597,0 </coordinates>  </Point>  </Placemark>    <Placemark> <name>B 1000</name>  <styleUrl>#colorstyle</styleUrl>     <Point> <coordinates>-43.618198,-20.376190,0 </coordinates>  </Point>  </Placemark>    <Placemark> <name>Serra do Siqueira</name>  <styleUrl>#colorstyle</styleUrl>     <Point> <coordinates>-43.629480,-20.372910,0 </coordinates>  </Point>  </Placemark>    <Placemark> <name>Dom Bosco</name>  <styleUrl>#colorstyle</styleUrl>     <Point> <coordinates>-43.657900,-20.360920,0 </coordinates>  </Point>  </Placemark>    <Placemark> <name>RODOVIÁRIA CACHOEIRA DO CAMPO</name>  <styleUrl>#stylelast</styleUrl>     <Point> <coordinates>-43.666200,-20.352300,0 </coordinates>  </Point>  </Placemark> </Folder></Document> </kml> 
