<?xml version="1.0" encoding="UTF-8"?> <kml xmlns="http://www.opengis.net/kml/2.2"> <Document> <Style id="colorstyle">     <IconStyle>        <color>5f000000</color>        <colorMode>0</colorMode>        <scale>0.7</scale>        <Icon>           <href>http://maps.google.com/mapfiles/kml/pal4/icon25.png</href>        </Icon>     </IconStyle>  </Style>  <Style id="stylefirst">     <IconStyle>        <color>64901200</color>        <scale>1.1</scale>        <Icon>           <href>http://google.com/mapfiles/ms/micons/flag.png</href>        </Icon>     </IconStyle>  </Style>  <Style id="stylelast">     <IconStyle>        <color>641400FF</color>        <scale>1.1</scale>        <Icon>           <href>http://google.com/mapfiles/ms/micons/flag.png</href>        </Icon>     </IconStyle>  </Style> <name>Itinerários</name><Folder><Style id="linestyle">   <LineStyle> <color>5aFF0000</color>    <width>4</width>   </LineStyle> </Style> <name>DISTRITAL - OURO PRETO - OURO PRETO X RODRIGO SILVA - Ida</name> <open>1</open>    <Placemark>    <name> OURO PRETO X RODRIGO SILVA </name>    <description><![CDATA[<div dir="ltr">Número 012 <br>Linha: OURO PRETO X RODRIGO SILVA<br></div>]]></description>      <styleUrl>#linestyle</styleUrl>      <LineString>        <tessellate>1</tessellate>        <coordinates> -43.507999,-20.380923,0 -43.507755,-20.380814,0 -43.507957,-20.380440,0 -43.507950,-20.380404,0 -43.507957,-20.380440,0 -43.507957,-20.380440,0 -43.507881,-20.380318,0 -43.507778,-20.380297,0 -43.507561,-20.380377,0 -43.507507,-20.380466,0 -43.507440,-20.380830,0 -43.507440,-20.380830,0 -43.507440,-20.380830,0 -43.507381,-20.380896,0 -43.507290,-20.380886,0 -43.507237,-20.380847,0 -43.507237,-20.380847,0 -43.507237,-20.380847,0 -43.507000,-20.380690,0 -43.506992,-20.380653,0 -43.506992,-20.380653,0 -43.506992,-20.380653,0 -43.506992,-20.380636,0 -43.507027,-20.380575,0 -43.507247,-20.380460,0 -43.507247,-20.380460,0 -43.507247,-20.380460,0 -43.507972,-20.380113,0 -43.509590,-20.379261,0 -43.510892,-20.378887,0 -43.510892,-20.378887,0 -43.510892,-20.378887,0 -43.511148,-20.378790,0 -43.511148,-20.378790,0 -43.511148,-20.378790,0 -43.514248,-20.377914,0 -43.514222,-20.377912,0 -43.514247,-20.377915,0 -43.514222,-20.377912,0 -43.514222,-20.377912,0 -43.514512,-20.377965,0 -43.514512,-20.377965,0 -43.514512,-20.377965,0 -43.515242,-20.378228,0 -43.515242,-20.378228,0 -43.515242,-20.378228,0 -43.515274,-20.378250,0 -43.515275,-20.378250,0 -43.515275,-20.378250,0 -43.515275,-20.378250,0 -43.516638,-20.378958,0 -43.516750,-20.378984,0 -43.516695,-20.378972,0 -43.516695,-20.378972,0 -43.516695,-20.378972,0 -43.517207,-20.379052,0 -43.517207,-20.379052,0 -43.517207,-20.379052,0 -43.518127,-20.379138,0 -43.518127,-20.379138,0 -43.518127,-20.379138,0 -43.518337,-20.379140,0 -43.518337,-20.379140,0 -43.518337,-20.379140,0 -43.521422,-20.379937,0 -43.521422,-20.379937,0 -43.521422,-20.379937,0 -43.521570,-20.380057,0 -43.521610,-20.380095,0 -43.521715,-20.380192,0 -43.521715,-20.380192,0 -43.521715,-20.380192,0 -43.523476,-20.381496,0 -43.524067,-20.381376,0 -43.524799,-20.380518,0 -43.525390,-20.379133,0 -43.525390,-20.379133,0 -43.525390,-20.379133,0 -43.526085,-20.378445,0 -43.526083,-20.378445,0 -43.526083,-20.378445,0 -43.526083,-20.378445,0 -43.529367,-20.377688,0 -43.534233,-20.375181,0 -43.534786,-20.375452,0 -43.536316,-20.376781,0 -43.537033,-20.376667,0 -43.540677,-20.375117,0 -43.540810,-20.375058,0 -43.540810,-20.375058,0 -43.540810,-20.375058,0 -43.541457,-20.374772,0 -43.541457,-20.374772,0 -43.541457,-20.374772,0 -43.542293,-20.374425,0 -43.542293,-20.374425,0 -43.542293,-20.374425,0 -43.543228,-20.374030,0 -43.543228,-20.374030,0 -43.543228,-20.374030,0 -43.544727,-20.373732,0 -43.549503,-20.376062,0 -43.556085,-20.372910,0 -43.568050,-20.367165,0 -43.569145,-20.367584,0 -43.569397,-20.367803,0 -43.571960,-20.369776,0 -43.575481,-20.370338,0 -43.577570,-20.372502,0 -43.582150,-20.375559,0 -43.595305,-20.377273,0 -43.606898,-20.379153,0 -43.607315,-20.378996,0 -43.607685,-20.378567,0 -43.610355,-20.374773,0 -43.611183,-20.374645,0 -43.616409,-20.375067,0 -43.617388,-20.375707,0 -43.617388,-20.375707,0 -43.617388,-20.375707,0 -43.619433,-20.376350,0 -43.619433,-20.376350,0 -43.619433,-20.376350,0 -43.620770,-20.376647,0 -43.621326,-20.376713,0 -43.622589,-20.376343,0 -43.624676,-20.375666,0 -43.626637,-20.375463,0 -43.630024,-20.372372,0 -43.632099,-20.369036,0 -43.633498,-20.368727,0 -43.635525,-20.368500,0 -43.636784,-20.369017,0 -43.640148,-20.370806,0 -43.641449,-20.370441,0 -43.642536,-20.369024,0 -43.644169,-20.367058,0 -43.648903,-20.364773,0 -43.658090,-20.360778,0 -43.658090,-20.360778,0 -43.658090,-20.360778,0 -43.658183,-20.360752,0 -43.658183,-20.360752,0 -43.658183,-20.360752,0 -43.660962,-20.358955,0 -43.661190,-20.358564,0 -43.661650,-20.356535,0 -43.661650,-20.356535,0 -43.661650,-20.356535,0 -43.661708,-20.356215,0 -43.661708,-20.356215,0 -43.661708,-20.356215,0 -43.662557,-20.354965,0 -43.662557,-20.354965,0 -43.662557,-20.354965,0 -43.662748,-20.354782,0 -43.662748,-20.354782,0 -43.662748,-20.354782,0 -43.663612,-20.354086,0 -43.666310,-20.352482,0 -43.666310,-20.352482,0 -43.666310,-20.352482,0 -43.666565,-20.352275,0 -43.666565,-20.352275,0 -43.666565,-20.352275,0 -43.666622,-20.352175,0 -43.666630,-20.351957,0 -43.666587,-20.351848,0 -43.666587,-20.351848,0 -43.666587,-20.351848,0 -43.666512,-20.351755,0 -43.666462,-20.351722,0 -43.666462,-20.351722,0 -43.666462,-20.351722,0 -43.666348,-20.351688,0 -43.666290,-20.351688,0 -43.666183,-20.351721,0 -43.665951,-20.351942,0 -43.665939,-20.352037,0 -43.665992,-20.352137,0 -43.665992,-20.352137,0 -43.665992,-20.352137,0 -43.666012,-20.352158,0 -43.666017,-20.352105,0 -43.666054,-20.352098,0 -43.666111,-20.352060,0 -43.666130,-20.352001,0 -43.666133,-20.351918,0 -43.666133,-20.351918,0 -43.666133,-20.351918,0 -43.666206,-20.351761,0 -43.666458,-20.351704,0 -43.666855,-20.351774,0 -43.667049,-20.351925,0 -43.667049,-20.351997,0 -43.666973,-20.352077,0 -43.666162,-20.352630,0 -43.666162,-20.352630,0 -43.666162,-20.352630,0 -43.666013,-20.352732,0 -43.666013,-20.352732,0 -43.666013,-20.352732,0 -43.665847,-20.352843,0 -43.664895,-20.353453,0 -43.664895,-20.353453,0 -43.664895,-20.353453,0 -43.664638,-20.353593,0 -43.664638,-20.353593,0 -43.664638,-20.353593,0 -43.662617,-20.354947,0 -43.662617,-20.354947,0 -43.662617,-20.354947,0 -43.661967,-20.355650,0 -43.661967,-20.355650,0 -43.661967,-20.355650,0 -43.661732,-20.356197,0 -43.661665,-20.356540,0 -43.661665,-20.356540,0 -43.661665,-20.356540,0 -43.661590,-20.357157,0 -43.661590,-20.357157,0 -43.661590,-20.357157,0 -43.660263,-20.359791,0 -43.658660,-20.360657,0 -43.657993,-20.360905,0 -43.658163,-20.360842,0 -43.658163,-20.360842,0 -43.657305,-20.361158,0 -43.657305,-20.361158,0 -43.657305,-20.361158,0 -43.642840,-20.368445,0 -43.640663,-20.370785,0 -43.639225,-20.370672,0 -43.634682,-20.368593,0 -43.630844,-20.369915,0 -43.630249,-20.370819,0 -43.630170,-20.371747,0 -43.629643,-20.372877,0 -43.629643,-20.372877,0 -43.629643,-20.372877,0 -43.629313,-20.373193,0 -43.629313,-20.373193,0 -43.629313,-20.373193,0 -43.628342,-20.374104,0 -43.625988,-20.375763,0 -43.619323,-20.376423,0 -43.619323,-20.376423,0 -43.619323,-20.376423,0 -43.618553,-20.376352,0 -43.618526,-20.376453,0 -43.618518,-20.377170,0 -43.618497,-20.377440,0 -43.618497,-20.377440,0 -43.618497,-20.377440,0 -43.618580,-20.377810,0 -43.619102,-20.378166,0 -43.622285,-20.378877,0 -43.623753,-20.379255,0 -43.625694,-20.382460,0 -43.625389,-20.383484,0 -43.625168,-20.383909,0 -43.625267,-20.384054,0 -43.626163,-20.384714,0 -43.626175,-20.385105,0 -43.626030,-20.385851,0 -43.626240,-20.386390,0 -43.626198,-20.386738,0 -43.625580,-20.387819,0 -43.624386,-20.388193,0 -43.624378,-20.388386,0 -43.624565,-20.388624,0 -43.625511,-20.389126,0 -43.625557,-20.389616,0 -43.625404,-20.389858,0 -43.622478,-20.393312,0 -43.622135,-20.393251,0 -43.622028,-20.393217,0 -43.621811,-20.393219,0 -43.621643,-20.393322,0 -43.620274,-20.394571,0 -43.619148,-20.394800,0 -43.616338,-20.398625,0 -43.616005,-20.398914,0 -43.615223,-20.399107,0 -43.614426,-20.400459,0 -43.614624,-20.401041,0 -43.614868,-20.401964,0 -43.614208,-20.402718,0 -43.613194,-20.403135,0 -43.611317,-20.403912,0 -43.610989,-20.404377,0 -43.610783,-20.405415,0 -43.610445,-20.405702,0 -43.609798,-20.406544,0 -43.609406,-20.408234,0 -43.609535,-20.408367,0 -43.610859,-20.408857,0 -43.610825,-20.408793,0 -43.614082,-20.415542,0 -43.614647,-20.417030,0 -43.614647,-20.417030,0 -43.614647,-20.417030,0 -43.614647,-20.417030,0 -43.614795,-20.417097,0 -43.614795,-20.417097,0 -43.614795,-20.417097,0 -43.615120,-20.417353,0 -43.615105,-20.418068,0 -43.614658,-20.419462,0 -43.614441,-20.420275,0 -43.613683,-20.421127,0 -43.613683,-20.421127,0 -43.613683,-20.421127,0 -43.613620,-20.421218,0 -43.613620,-20.421218,0 -43.613620,-20.421218,0 -43.613335,-20.421942,0 -43.613333,-20.421942,0 -43.613213,-20.422588,0 -43.612403,-20.423770,0 -43.611535,-20.424323,0        </coordinates>      </LineString>    </Placemark>    <Placemark> <name>RODOVIÁRIA OURO PRETO</name>  <styleUrl>#stylefirst</styleUrl>     <Point> <coordinates>-43.507999,-20.380923,0 </coordinates>  </Point>  </Placemark>    <Placemark> <name>Ponto São Bartolomeu</name>  <styleUrl>#colorstyle</styleUrl>     <Point> <coordinates>-43.540715,-20.375113,0 </coordinates>  </Point>  </Placemark>    <Placemark> <name>SESC</name>  <styleUrl>#colorstyle</styleUrl>     <Point> <coordinates>-43.560828,-20.368597,0 </coordinates>  </Point>  </Placemark>    <Placemark> <name>B 1000</name>  <styleUrl>#colorstyle</styleUrl>     <Point> <coordinates>-43.618198,-20.376190,0 </coordinates>  </Point>  </Placemark>    <Placemark> <name>Rodrigo Silva 4</name>  <styleUrl>#colorstyle</styleUrl>     <Point> <coordinates>-43.624349,-20.388278,0 </coordinates>  </Point>  </Placemark>    <Placemark> <name>Rodrigo Silva 3</name>  <styleUrl>#colorstyle</styleUrl>     <Point> <coordinates>-43.614836,-20.401923,0 </coordinates>  </Point>  </Placemark>    <Placemark> <name>Rodrigo Silva 2</name>  <styleUrl>#colorstyle</styleUrl>     <Point> <coordinates>-43.614698,-20.417043,0 </coordinates>  </Point>  </Placemark>    <Placemark> <name>Rodrigo Silva 1</name>  <styleUrl>#colorstyle</styleUrl>     <Point> <coordinates>-43.613750,-20.421080,0 </coordinates>  </Point>  </Placemark>    <Placemark> <name>RODRIGO SILVA</name>  <styleUrl>#stylelast</styleUrl>     <Point> <coordinates>-43.611293,-20.424466,0 </coordinates>  </Point>  </Placemark> </Folder></Document> </kml> 
