<?xml version="1.0" encoding="UTF-8"?> <kml xmlns="http://www.opengis.net/kml/2.2"> <Document> <Style id="colorstyle">     <IconStyle>        <color>5f000000</color>        <colorMode>0</colorMode>        <scale>0.7</scale>        <Icon>           <href>http://maps.google.com/mapfiles/kml/pal4/icon25.png</href>        </Icon>     </IconStyle>  </Style>  <Style id="stylefirst">     <IconStyle>        <color>64901200</color>        <scale>1.1</scale>        <Icon>           <href>http://google.com/mapfiles/ms/micons/flag.png</href>        </Icon>     </IconStyle>  </Style>  <Style id="stylelast">     <IconStyle>        <color>641400FF</color>        <scale>1.1</scale>        <Icon>           <href>http://google.com/mapfiles/ms/micons/flag.png</href>        </Icon>     </IconStyle>  </Style> <name>Itinerários</name><Folder><Style id="linestyle">   <LineStyle> <color>5aFF0000</color>    <width>4</width>   </LineStyle> </Style> <name>DISTRITAL - OURO PRETO - OURO PRETO x AMARANTINA (Ratinho) - Ida</name> <open>1</open>    <Placemark>    <name> OURO PRETO x AMARANTINA (Ratinho) </name>    <description><![CDATA[<div dir="ltr">Número 016 <br>Linha: OURO PRETO x AMARANTINA (Ratinho)<br></div>]]></description>      <styleUrl>#linestyle</styleUrl>      <LineString>        <tessellate>1</tessellate>        <coordinates> -43.507392,-20.380881,0 -43.507475,-20.380748,0 -43.507427,-20.381040,0 -43.507427,-20.381040,0 -43.507427,-20.381040,0 -43.507647,-20.381272,0 -43.507647,-20.381272,0 -43.507647,-20.381272,0 -43.507755,-20.380850,0 -43.507757,-20.380850,0 -43.507757,-20.380850,0 -43.507767,-20.380895,0 -43.507965,-20.380765,0 -43.507950,-20.380817,0 -43.507950,-20.380850,0 -43.507997,-20.380830,0 -43.507999,-20.380821,0 -43.507999,-20.380821,0 -43.508020,-20.380838,0 -43.508020,-20.380453,0 -43.508020,-20.380453,0 -43.508020,-20.380453,0 -43.507478,-20.380798,0 -43.507478,-20.380798,0 -43.507478,-20.380798,0 -43.507245,-20.380823,0 -43.507245,-20.380823,0 -43.507245,-20.380823,0 -43.507047,-20.380695,0 -43.507047,-20.380695,0 -43.507047,-20.380695,0 -43.507030,-20.380568,0 -43.507273,-20.380417,0 -43.507273,-20.380417,0 -43.507273,-20.380417,0 -43.510827,-20.378855,0 -43.510827,-20.378855,0 -43.510827,-20.378855,0 -43.511185,-20.378732,0 -43.511185,-20.378732,0 -43.511185,-20.378732,0 -43.511280,-20.378695,0 -43.514228,-20.377868,0 -43.514228,-20.377868,0 -43.514228,-20.377868,0 -43.514502,-20.377917,0 -43.514502,-20.377917,0 -43.514502,-20.377917,0 -43.515208,-20.378147,0 -43.515208,-20.378147,0 -43.515208,-20.378147,0 -43.515280,-20.378232,0 -43.515303,-20.378253,0 -43.515303,-20.378253,0 -43.515303,-20.378253,0 -43.516553,-20.378883,0 -43.516553,-20.378883,0 -43.516553,-20.378883,0 -43.517207,-20.379042,0 -43.517207,-20.379042,0 -43.517207,-20.379042,0 -43.517992,-20.379117,0 -43.517992,-20.379117,0 -43.517992,-20.379117,0 -43.518322,-20.379133,0 -43.518322,-20.379133,0 -43.518322,-20.379133,0 -43.518557,-20.379153,0 -43.521487,-20.379973,0 -43.521487,-20.379973,0 -43.521487,-20.379973,0 -43.521708,-20.380153,0 -43.521708,-20.380153,0 -43.521708,-20.380153,0 -43.524797,-20.380492,0 -43.525353,-20.379202,0 -43.525353,-20.379202,0 -43.525353,-20.379202,0 -43.526090,-20.378445,0 -43.526090,-20.378445,0 -43.526090,-20.378445,0 -43.532085,-20.376093,0 -43.540295,-20.375262,0 -43.540295,-20.375262,0 -43.540295,-20.375262,0 -43.541395,-20.374785,0 -43.541395,-20.374785,0 -43.541395,-20.374785,0 -43.542250,-20.374425,0 -43.542250,-20.374425,0 -43.542250,-20.374425,0 -43.542807,-20.374192,0 -43.543188,-20.374030,0 -43.543188,-20.374030,0 -43.543188,-20.374030,0 -43.557335,-20.371588,0 -43.560800,-20.368520,0 -43.560800,-20.368520,0 -43.560800,-20.368520,0 -43.560970,-20.368398,0 -43.560970,-20.368398,0 -43.560970,-20.368398,0 -43.569478,-20.367823,0 -43.579745,-20.374677,0 -43.599930,-20.379055,0 -43.613405,-20.374663,0 -43.617150,-20.375548,0 -43.617150,-20.375548,0 -43.617150,-20.375548,0 -43.619445,-20.376405,0 -43.619445,-20.376405,0 -43.619445,-20.376405,0 -43.619683,-20.376462,0 -43.629640,-20.372923,0 -43.629640,-20.372923,0 -43.629640,-20.372923,0 -43.629805,-20.372768,0 -43.629805,-20.372768,0 -43.629805,-20.372768,0 -43.630932,-20.369818,0 -43.644755,-20.366738,0 -43.657562,-20.361020,0 -43.657708,-20.360973,0 -43.657708,-20.360973,0 -43.657708,-20.360973,0 -43.658192,-20.360828,0 -43.658192,-20.360828,0 -43.658192,-20.360828,0 -43.661645,-20.356898,0 -43.661645,-20.356898,0 -43.661645,-20.356898,0 -43.661737,-20.356230,0 -43.661737,-20.356230,0 -43.661737,-20.356230,0 -43.662250,-20.355272,0 -43.662250,-20.355272,0 -43.662250,-20.355272,0 -43.662735,-20.354792,0 -43.662735,-20.354792,0 -43.662735,-20.354792,0 -43.664220,-20.353748,0 -43.664808,-20.353468,0 -43.664808,-20.353468,0 -43.664808,-20.353468,0 -43.665043,-20.353352,0 -43.665043,-20.353352,0 -43.665043,-20.353352,0 -43.666285,-20.352500,0 -43.666285,-20.352500,0 -43.666285,-20.352500,0 -43.666568,-20.352283,0 -43.666568,-20.352283,0 -43.666568,-20.352283,0 -43.666558,-20.351780,0 -43.666558,-20.351780,0 -43.666558,-20.351780,0 -43.666453,-20.351717,0 -43.666453,-20.351717,0 -43.666453,-20.351717,0 -43.666057,-20.351787,0 -43.665987,-20.352033,0 -43.665987,-20.352033,0 -43.665987,-20.352033,0 -43.666020,-20.352100,0 -43.666167,-20.351912,0 -43.666167,-20.351912,0 -43.666167,-20.351912,0 -43.669750,-20.349997,0 -43.671315,-20.349892,0 -43.671497,-20.349900,0 -43.671497,-20.349900,0 -43.671497,-20.349900,0 -43.672480,-20.349940,0 -43.672480,-20.349940,0 -43.672480,-20.349940,0 -43.675462,-20.348648,0 -43.675462,-20.348648,0 -43.675462,-20.348648,0 -43.675727,-20.347985,0 -43.675943,-20.347477,0 -43.675943,-20.347477,0 -43.675943,-20.347477,0 -43.677033,-20.346168,0 -43.677033,-20.346168,0 -43.677033,-20.346168,0 -43.677640,-20.345877,0 -43.677640,-20.345877,0 -43.677640,-20.345877,0 -43.679903,-20.336455,0 -43.688640,-20.329053,0 -43.692662,-20.322183,0 -43.692662,-20.322183,0 -43.692662,-20.322183,0 -43.693172,-20.321423,0 -43.693172,-20.321423,0 -43.693172,-20.321423,0 -43.694050,-20.320108,0 -43.699777,-20.318128,0 -43.702502,-20.316672,0 -43.706652,-20.314197,0 -43.709608,-20.312687,0 -43.710422,-20.309258,0 -43.707860,-20.300332,0 -43.709127,-20.295775,0 -43.709127,-20.295775,0 -43.709127,-20.295775,0 -43.709627,-20.295053,0 -43.709627,-20.295053,0 -43.709627,-20.295053,0 -43.710205,-20.293300,0 -43.712023,-20.287880,0 -43.712023,-20.287880,0 -43.712023,-20.287880,0 -43.712190,-20.287375,0 -43.712190,-20.287375,0 -43.712190,-20.287375,0 -43.712783,-20.285662,0 -43.717523,-20.279665,0 -43.712123,-20.275135,0 -43.706252,-20.274348,0        </coordinates>      </LineString>    </Placemark>    <Placemark> <name>PONTO FINAL RODOVIÁRIA</name>  <styleUrl>#stylefirst</styleUrl>     <Point> <coordinates>-43.507392,-20.380881,0 </coordinates>  </Point>  </Placemark>    <Placemark> <name>Ponto São Bartolomeu</name>  <styleUrl>#colorstyle</styleUrl>     <Point> <coordinates>-43.540715,-20.375113,0 </coordinates>  </Point>  </Placemark>    <Placemark> <name>SESC</name>  <styleUrl>#colorstyle</styleUrl>     <Point> <coordinates>-43.560828,-20.368597,0 </coordinates>  </Point>  </Placemark>    <Placemark> <name>B 1000</name>  <styleUrl>#colorstyle</styleUrl>     <Point> <coordinates>-43.618198,-20.376190,0 </coordinates>  </Point>  </Placemark>    <Placemark> <name>Dom Bosco</name>  <styleUrl>#colorstyle</styleUrl>     <Point> <coordinates>-43.657900,-20.360920,0 </coordinates>  </Point>  </Placemark>    <Placemark> <name>Ponto Rodoviaria Cachoeira do Campo</name>  <styleUrl>#colorstyle</styleUrl>     <Point> <coordinates>-43.666600,-20.351830,0 </coordinates>  </Point>  </Placemark>    <Placemark> <name>Hotel Bandeirante</name>  <styleUrl>#colorstyle</styleUrl>     <Point> <coordinates>-43.675671,-20.348150,0 </coordinates>  </Point>  </Placemark>    <Placemark> <name>Rodovia Itabirito 2</name>  <styleUrl>#colorstyle</styleUrl>     <Point> <coordinates>-43.705180,-20.301550,0 </coordinates>  </Point>  </Placemark>    <Placemark> <name>Praça Serafim</name>  <styleUrl>#colorstyle</styleUrl>     <Point> <coordinates>-43.709011,-20.295691,0 </coordinates>  </Point>  </Placemark>    <Placemark> <name>COELHOS</name>  <styleUrl>#colorstyle</styleUrl>     <Point> <coordinates>-43.712086,-20.287776,0 </coordinates>  </Point>  </Placemark>    <Placemark> <name>RATINHO</name>  <styleUrl>#stylelast</styleUrl>     <Point> <coordinates>-43.705970,-20.274200,0 </coordinates>  </Point>  </Placemark> </Folder></Document> </kml> 
