<?xml version="1.0" encoding="UTF-8"?> <kml xmlns="http://www.opengis.net/kml/2.2"> <Document> <Style id="colorstyle">     <IconStyle>        <color>5f000000</color>        <colorMode>0</colorMode>        <scale>0.7</scale>        <Icon>           <href>http://maps.google.com/mapfiles/kml/pal4/icon25.png</href>        </Icon>     </IconStyle>  </Style>  <Style id="stylefirst">     <IconStyle>        <color>64901200</color>        <scale>1.1</scale>        <Icon>           <href>http://google.com/mapfiles/ms/micons/flag.png</href>        </Icon>     </IconStyle>  </Style>  <Style id="stylelast">     <IconStyle>        <color>641400FF</color>        <scale>1.1</scale>        <Icon>           <href>http://google.com/mapfiles/ms/micons/flag.png</href>        </Icon>     </IconStyle>  </Style> <name>Itinerários</name><Folder><Style id="linestyle">   <LineStyle> <color>5aFF0000</color>    <width>4</width>   </LineStyle> </Style> <name>CONSORCIO ROTA REAL - TR - POCINHO X SAO CRISTOVAO - Ida</name> <open>1</open>    <Placemark>    <name> POCINHO X SÃO CRISTOVÃO </name>    <description><![CDATA[<div dir="ltr">Número 002 <br>Linha: POCINHO X SÃO CRISTOVÃO<br></div>]]></description>      <styleUrl>#linestyle</styleUrl>      <LineString>        <tessellate>1</tessellate>        <coordinates> -43.491010,-20.405450,0 -43.491173,-20.405409,0 -43.491287,-20.405502,0 -43.491287,-20.405502,0 -43.491287,-20.405502,0 -43.491813,-20.406060,0 -43.491813,-20.406060,0 -43.491813,-20.406060,0 -43.492257,-20.406458,0 -43.492250,-20.406475,0 -43.492310,-20.406538,0 -43.492415,-20.406643,0 -43.492533,-20.406718,0 -43.492533,-20.406718,0 -43.492533,-20.406718,0 -43.492794,-20.406847,0 -43.493023,-20.406915,0 -43.493023,-20.406915,0 -43.493023,-20.406915,0 -43.493382,-20.406953,0 -43.493382,-20.406953,0 -43.493382,-20.406953,0 -43.493771,-20.406927,0 -43.494907,-20.406477,0 -43.495082,-20.406402,0 -43.496532,-20.405703,0 -43.497005,-20.405480,0 -43.497390,-20.405287,0 -43.497390,-20.405287,0 -43.497390,-20.405287,0 -43.497572,-20.405202,0 -43.497572,-20.405202,0 -43.497572,-20.405202,0 -43.498177,-20.404918,0 -43.499001,-20.404470,0 -43.499260,-20.404243,0 -43.499572,-20.404137,0 -43.500595,-20.403597,0 -43.500851,-20.403366,0 -43.500843,-20.403397,0 -43.500843,-20.403397,0 -43.500843,-20.403397,0 -43.500883,-20.403185,0 -43.500904,-20.403173,0 -43.501053,-20.403149,0 -43.501085,-20.403152,0 -43.501085,-20.403152,0 -43.501085,-20.403152,0 -43.502998,-20.402618,0 -43.503587,-20.402345,0 -43.503587,-20.402345,0 -43.503587,-20.402345,0 -43.504078,-20.402202,0 -43.504078,-20.402202,0 -43.504078,-20.402202,0 -43.505055,-20.402248,0 -43.505055,-20.402248,0 -43.505055,-20.402248,0 -43.505570,-20.402490,0 -43.505570,-20.402490,0 -43.505570,-20.402490,0 -43.505550,-20.402479,0 -43.506770,-20.403677,0 -43.507397,-20.404543,0 -43.507705,-20.406170,0 -43.508106,-20.406878,0 -43.508535,-20.407083,0 -43.508535,-20.407083,0 -43.508535,-20.407083,0 -43.509433,-20.407482,0 -43.509433,-20.407482,0 -43.509433,-20.407482,0 -43.509632,-20.407650,0 -43.509632,-20.407650,0 -43.509632,-20.407650,0 -43.509807,-20.407885,0 -43.509807,-20.407885,0 -43.509807,-20.407885,0 -43.509892,-20.408066,0 -43.509922,-20.408791,0 -43.509067,-20.411002,0 -43.509148,-20.411331,0 -43.509575,-20.411751,0 -43.510078,-20.411839,0 -43.512318,-20.411280,0 -43.513393,-20.411060,0 -43.515262,-20.409258,0 -43.517910,-20.406835,0 -43.520462,-20.404438,0 -43.521102,-20.403642,0 -43.521102,-20.403642,0 -43.521102,-20.403642,0 -43.521187,-20.403492,0 -43.521229,-20.403280,0 -43.521073,-20.403002,0 -43.521073,-20.403002,0 -43.521073,-20.403002,0 -43.520490,-20.401830,0 -43.520490,-20.401830,0 -43.520490,-20.401830,0 -43.520380,-20.401610,0 -43.520380,-20.401610,0 -43.520380,-20.401610,0 -43.519648,-20.400142,0 -43.519008,-20.398912,0 -43.518918,-20.398743,0 -43.518918,-20.398743,0 -43.518918,-20.398743,0 -43.518837,-20.398638,0 -43.518444,-20.398230,0 -43.518490,-20.398140,0 -43.518505,-20.398130,0 -43.518505,-20.398130,0 -43.518505,-20.398130,0 -43.518536,-20.398121,0 -43.518604,-20.398138,0 -43.518623,-20.398153,0 -43.518642,-20.398178,0 -43.518623,-20.398153,0 -43.518623,-20.398153,0 -43.518845,-20.398624,0 -43.518745,-20.398724,0 -43.518538,-20.398865,0 -43.518538,-20.398865,0 -43.518538,-20.398865,0 -43.517642,-20.399585,0 -43.516532,-20.400588,0 -43.515675,-20.401610,0 -43.515675,-20.401610,0 -43.515675,-20.401610,0 -43.515592,-20.401680,0 -43.515592,-20.401680,0 -43.515592,-20.401680,0 -43.514420,-20.402123,0 -43.513142,-20.402923,0 -43.512257,-20.403418,0 -43.511986,-20.403301,0 -43.511735,-20.403120,0 -43.510945,-20.402523,0 -43.510945,-20.402523,0 -43.510945,-20.402523,0 -43.510792,-20.402493,0 -43.510612,-20.402582,0 -43.510207,-20.402975,0 -43.510207,-20.402975,0 -43.510207,-20.402975,0 -43.510078,-20.403149,0 -43.510094,-20.403193,0 -43.510372,-20.403410,0 -43.510502,-20.403444,0 -43.510807,-20.403327,0 -43.510899,-20.403280,0 -43.510941,-20.403187,0 -43.510942,-20.403150,0 -43.510942,-20.403150,0 -43.510942,-20.403150,0 -43.510899,-20.403028,0 -43.510615,-20.402778,0 -43.510597,-20.402752,0 -43.510563,-20.402611,0 -43.510643,-20.402468,0 -43.510601,-20.402435,0 -43.510627,-20.402448,0 -43.510627,-20.402448,0 -43.510627,-20.402448,0 -43.510498,-20.402311,0 -43.510413,-20.402187,0 -43.510413,-20.402187,0 -43.510413,-20.402187,0 -43.509963,-20.401637,0 -43.509963,-20.401637,0 -43.509963,-20.401637,0 -43.509130,-20.400640,0 -43.508920,-20.400408,0 -43.508920,-20.400408,0 -43.508920,-20.400408,0 -43.508678,-20.400117,0 -43.508678,-20.400117,0 -43.508678,-20.400117,0 -43.508141,-20.399521,0 -43.507827,-20.399283,0 -43.507827,-20.399283,0 -43.507827,-20.399283,0 -43.507650,-20.399050,0 -43.507678,-20.399015,0 -43.507288,-20.398608,0 -43.507288,-20.398608,0 -43.507288,-20.398608,0 -43.507088,-20.398457,0 -43.507088,-20.398457,0 -43.507088,-20.398457,0 -43.506852,-20.398325,0 -43.506852,-20.398325,0 -43.506852,-20.398325,0 -43.506767,-20.398268,0 -43.506767,-20.398268,0 -43.506767,-20.398268,0 -43.506733,-20.398178,0 -43.506740,-20.398128,0 -43.506740,-20.398128,0 -43.506740,-20.398128,0 -43.506786,-20.398031,0 -43.506973,-20.397776,0 -43.507069,-20.397787,0 -43.507313,-20.398018,0 -43.507732,-20.398557,0 -43.507889,-20.398645,0 -43.509492,-20.398657,0 -43.511572,-20.398710,0 -43.511952,-20.398693,0 -43.511952,-20.398693,0 -43.511952,-20.398693,0 -43.512043,-20.398698,0 -43.512043,-20.398698,0 -43.512043,-20.398698,0 -43.512165,-20.398689,0 -43.512203,-20.398615,0 -43.512202,-20.397548,0 -43.512225,-20.396133,0 -43.512184,-20.394960,0 -43.512100,-20.394926,0 -43.512098,-20.394927,0 -43.512098,-20.394927,0 -43.512098,-20.394927,0 -43.511998,-20.394920,0 -43.511998,-20.394920,0 -43.511998,-20.394920,0 -43.511645,-20.394925,0 -43.511645,-20.394925,0 -43.511645,-20.394925,0 -43.511007,-20.394930,0 -43.511007,-20.394930,0 -43.511007,-20.394930,0 -43.509998,-20.394938,0 -43.509869,-20.395069,0 -43.509422,-20.395648,0 -43.509260,-20.395878,0 -43.509260,-20.395878,0 -43.509260,-20.395878,0 -43.509175,-20.395982,0 -43.509175,-20.395982,0 -43.509175,-20.395982,0 -43.509056,-20.396057,0 -43.507098,-20.396038,0 -43.506720,-20.396012,0 -43.506720,-20.396012,0 -43.506720,-20.396012,0 -43.506552,-20.396012,0 -43.506552,-20.396012,0 -43.506552,-20.396012,0 -43.506462,-20.396109,0 -43.506465,-20.397018,0 -43.506465,-20.397018,0 -43.506465,-20.397018,0 -43.506468,-20.397142,0 -43.506468,-20.397142,0 -43.506468,-20.397142,0 -43.506481,-20.397299,0 -43.506618,-20.397486,0 -43.507233,-20.398041,0 -43.507172,-20.398109,0 -43.507172,-20.398110,0 -43.506775,-20.398291,0 -43.506773,-20.398290,0 -43.506773,-20.398290,0 -43.506773,-20.398290,0 -43.506582,-20.398192,0 -43.506582,-20.398192,0 -43.506582,-20.398192,0 -43.504152,-20.398020,0 -43.503761,-20.397831,0 -43.501810,-20.396562,0 -43.500848,-20.396027,0 -43.500793,-20.396000,0 -43.500423,-20.395888,0 -43.500423,-20.395888,0 -43.500423,-20.395888,0 -43.500355,-20.395884,0 -43.500202,-20.395895,0 -43.500202,-20.395895,0 -43.500202,-20.395895,0 -43.499763,-20.395958,0 -43.499763,-20.395958,0 -43.499763,-20.395958,0 -43.499569,-20.395912,0 -43.499537,-20.395885,0 -43.499537,-20.395885,0 -43.499537,-20.395885,0 -43.498924,-20.395237,0 -43.498928,-20.395056,0 -43.498952,-20.394900,0 -43.498952,-20.394900,0 -43.498952,-20.394900,0 -43.498980,-20.394885,0 -43.499012,-20.394835,0 -43.499012,-20.394835,0 -43.499012,-20.394835,0 -43.499184,-20.394356,0 -43.499973,-20.393672,0 -43.500232,-20.393437,0 -43.500232,-20.393437,0 -43.500232,-20.393437,0 -43.500458,-20.393228,0 -43.500458,-20.393228,0 -43.500458,-20.393228,0 -43.501462,-20.392030,0 -43.501697,-20.391097,0 -43.501697,-20.391097,0 -43.501697,-20.391097,0 -43.501808,-20.390980,0 -43.502068,-20.391018,0 -43.502068,-20.391018,0 -43.502068,-20.391018,0 -43.502152,-20.391008,0 -43.502152,-20.391008,0 -43.502152,-20.391008,0 -43.502425,-20.390943,0 -43.502470,-20.390940,0 -43.502515,-20.390935,0 -43.502515,-20.390935,0 -43.502515,-20.390935,0 -43.503767,-20.390747,0 -43.504033,-20.390752,0 -43.504033,-20.390752,0 -43.504033,-20.390752,0 -43.504327,-20.390835,0 -43.504327,-20.390835,0 -43.504327,-20.390835,0 -43.505925,-20.390913,0 -43.506237,-20.390815,0 -43.506237,-20.390815,0 -43.506237,-20.390815,0 -43.506374,-20.390736,0 -43.506634,-20.390579,0 -43.506685,-20.390605,0 -43.506683,-20.390606,0 -43.506685,-20.390605,0 -43.506685,-20.390605,0 -43.506710,-20.390657,0 -43.506702,-20.390711,0 -43.506649,-20.390764,0 -43.506603,-20.390768,0 -43.506627,-20.390770,0 -43.506627,-20.390770,0 -43.506627,-20.390770,0 -43.506553,-20.390747,0 -43.506531,-20.390734,0 -43.506508,-20.390682,0 -43.506527,-20.390600,0 -43.506577,-20.390568,0 -43.506655,-20.390502,0 -43.506657,-20.390501,0 -43.506655,-20.390502,0 -43.506655,-20.390502,0 -43.506727,-20.389795,0 -43.506727,-20.389795,0 -43.506727,-20.389795,0 -43.506710,-20.389677,0 -43.506460,-20.389353,0 -43.506460,-20.389353,0 -43.506460,-20.389353,0 -43.505845,-20.388562,0 -43.505173,-20.387697,0 -43.505173,-20.387697,0 -43.505173,-20.387697,0 -43.505070,-20.387548,0 -43.505017,-20.387535,0 -43.505017,-20.387535,0 -43.505017,-20.387535,0 -43.504951,-20.387537,0 -43.504917,-20.387542,0 -43.504917,-20.387542,0 -43.504917,-20.387542,0 -43.504820,-20.387570,0 -43.504820,-20.387570,0 -43.504820,-20.387570,0 -43.504269,-20.387518,0 -43.504242,-20.387468,0 -43.504160,-20.387147,0 -43.504137,-20.387038,0 -43.504137,-20.387038,0 -43.504137,-20.387038,0 -43.504128,-20.386864,0 -43.504160,-20.386753,0 -43.504160,-20.386753,0 -43.504160,-20.386753,0 -43.504143,-20.386723,0 -43.503922,-20.386547,0 -43.503767,-20.386477,0 -43.503767,-20.386477,0 -43.503767,-20.386477,0 -43.503690,-20.386433,0 -43.503624,-20.386356,0 -43.503620,-20.386340,0 -43.503620,-20.386340,0 -43.503620,-20.386340,0 -43.503580,-20.386115,0 -43.503587,-20.386113,0 -43.503532,-20.386000,0 -43.503507,-20.385630,0 -43.503507,-20.385630,0 -43.503507,-20.385630,0 -43.503500,-20.385422,0 -43.503500,-20.385422,0 -43.503500,-20.385422,0 -43.503513,-20.385263,0 -43.503632,-20.384909,0 -43.503697,-20.384870,0 -43.503902,-20.384583,0 -43.504077,-20.383998,0 -43.504375,-20.383518,0 -43.504608,-20.382877,0 -43.504600,-20.382493,0 -43.504607,-20.382285,0 -43.504607,-20.382285,0 -43.504607,-20.382285,0 -43.504730,-20.381996,0 -43.504690,-20.382042,0 -43.504690,-20.382042,0 -43.504690,-20.382042,0 -43.504830,-20.381900,0 -43.504830,-20.381900,0 -43.504830,-20.381900,0 -43.504987,-20.381745,0 -43.504987,-20.381745,0 -43.504987,-20.381745,0 -43.506180,-20.380963,0 -43.506850,-20.380602,0 -43.506850,-20.380602,0 -43.506850,-20.380602,0 -43.507253,-20.380417,0 -43.507253,-20.380417,0 -43.507253,-20.380417,0 -43.507465,-20.380367,0 -43.507534,-20.380407,0 -43.507568,-20.380527,0 -43.507568,-20.380570,0 -43.507568,-20.380570,0 -43.507568,-20.380570,0 -43.507561,-20.380695,0 -43.507542,-20.380732,0 -43.507542,-20.380732,0 -43.507542,-20.380732,0 -43.507517,-20.380783,0 -43.507517,-20.380783,0 -43.507517,-20.380783,0 -43.507427,-20.380861,0 -43.507343,-20.380856,0 -43.507232,-20.380777,0 -43.507232,-20.380777,0 -43.507232,-20.380777,0 -43.507105,-20.380705,0 -43.507105,-20.380705,0 -43.507105,-20.380705,0 -43.507030,-20.380625,0 -43.507061,-20.380566,0 -43.507060,-20.380565,0 -43.507122,-20.380526,0 -43.507243,-20.380450,0 -43.507243,-20.380450,0 -43.507243,-20.380450,0 -43.509160,-20.379410,0 -43.510993,-20.378813,0 -43.510993,-20.378813,0 -43.510993,-20.378813,0 -43.511163,-20.378750,0 -43.511163,-20.378750,0 -43.511163,-20.378750,0 -43.512960,-20.378088,0 -43.514076,-20.377838,0 -43.514187,-20.377857,0 -43.514187,-20.377857,0 -43.514187,-20.377857,0 -43.514480,-20.377907,0 -43.514480,-20.377907,0 -43.514480,-20.377907,0 -43.515244,-20.378189,0 -43.515272,-20.378208,0 -43.515272,-20.378208,0 -43.515272,-20.378208,0 -43.515342,-20.378250,0 -43.515342,-20.378250,0 -43.515342,-20.378250,0 -43.516663,-20.378933,0 -43.516663,-20.378933,0 -43.516663,-20.378933,0 -43.517225,-20.379058,0 -43.517225,-20.379058,0 -43.517225,-20.379058,0 -43.518085,-20.379128,0 -43.518085,-20.379127,0 -43.518085,-20.379127,0 -43.518085,-20.379127,0 -43.518352,-20.379127,0 -43.518352,-20.379127,0 -43.518352,-20.379127,0 -43.518948,-20.379240,0 -43.518986,-20.379309,0 -43.518982,-20.379435,0 -43.518982,-20.379435,0 -43.518982,-20.379435,0 -43.518970,-20.379477,0 -43.518905,-20.379633,0 -43.518905,-20.379633,0 -43.518905,-20.379633,0 -43.518630,-20.380388,0 -43.518630,-20.380388,0 -43.518630,-20.380388,0 -43.518570,-20.380451,0 -43.518456,-20.380497,0 -43.518397,-20.380492,0 -43.518397,-20.380492,0 -43.518397,-20.380492,0 -43.518173,-20.380433,0        </coordinates>      </LineString>    </Placemark>    <Placemark> <name>PONTO FINAL DO POCINHO</name>  <styleUrl>#stylefirst</styleUrl>     <Point> <coordinates>-43.491010,-20.405450,0 </coordinates>  </Point>  </Placemark>    <Placemark> <name>Rotograma Pocinho</name>  <styleUrl>#colorstyle</styleUrl>     <Point> <coordinates>-43.493150,-20.406930,0 </coordinates>  </Point>  </Placemark>    <Placemark> <name>PONTO POCINHO</name>  <styleUrl>#colorstyle</styleUrl>     <Point> <coordinates>-43.497435,-20.405211,0 </coordinates>  </Point>  </Placemark>    <Placemark> <name>PONTO FINAL COOPEROURO</name>  <styleUrl>#colorstyle</styleUrl>     <Point> <coordinates>-43.500880,-20.403260,0 </coordinates>  </Point>  </Placemark>    <Placemark> <name>PONTO UPA DON ORIONE</name>  <styleUrl>#colorstyle</styleUrl>     <Point> <coordinates>-43.520361,-20.401834,0 </coordinates>  </Point>  </Placemark>    <Placemark> <name>PONTO HEXAGONO</name>  <styleUrl>#colorstyle</styleUrl>     <Point> <coordinates>-43.519735,-20.400395,0 </coordinates>  </Point>  </Placemark>    <Placemark> <name>TERMINAL NOVELIS</name>  <styleUrl>#colorstyle</styleUrl>     <Point> <coordinates>-43.518730,-20.398500,0 </coordinates>  </Point>  </Placemark>    <Placemark> <name>PONTO PORTARIA UFOP</name>  <styleUrl>#colorstyle</styleUrl>     <Point> <coordinates>-43.506708,-20.398258,0 </coordinates>  </Point>  </Placemark>    <Placemark> <name>PONTO DA BARRA</name>  <styleUrl>#colorstyle</styleUrl>     <Point> <coordinates>-43.502330,-20.390970,0 </coordinates>  </Point>  </Placemark>    <Placemark> <name>PONTO POSTO HORTO DOS CONTOS</name>  <styleUrl>#colorstyle</styleUrl>     <Point> <coordinates>-43.504844,-20.381789,0 </coordinates>  </Point>  </Placemark>    <Placemark> <name>PONTO FINAL SÃO CRISTOVÃO</name>  <styleUrl>#stylelast</styleUrl>     <Point> <coordinates>-43.517740,-20.380090,0 </coordinates>  </Point>  </Placemark> </Folder></Document> </kml> 
