<?xml version="1.0" encoding="UTF-8"?> <kml xmlns="http://www.opengis.net/kml/2.2"> <Document> <Style id="colorstyle">     <IconStyle>        <color>5f000000</color>        <colorMode>0</colorMode>        <scale>0.7</scale>        <Icon>           <href>http://maps.google.com/mapfiles/kml/pal4/icon25.png</href>        </Icon>     </IconStyle>  </Style>  <Style id="stylefirst">     <IconStyle>        <color>64901200</color>        <scale>1.1</scale>        <Icon>           <href>http://google.com/mapfiles/ms/micons/flag.png</href>        </Icon>     </IconStyle>  </Style>  <Style id="stylelast">     <IconStyle>        <color>641400FF</color>        <scale>1.1</scale>        <Icon>           <href>http://google.com/mapfiles/ms/micons/flag.png</href>        </Icon>     </IconStyle>  </Style> <name>Itinerários</name><Folder><Style id="linestyle">   <LineStyle> <color>5aFF0000</color>    <width>4</width>   </LineStyle> </Style> <name>DISTRITAL - OURO PRETO - SALTO X OURO PRETO - Ida</name> <open>1</open>    <Placemark>    <name> SALTO X OURO PRETO </name>    <description><![CDATA[<div dir="ltr">Número 025 <br>Linha: SALTO X OURO PRETO<br></div>]]></description>      <styleUrl>#linestyle</styleUrl>      <LineString>        <tessellate>1</tessellate>        <coordinates> -43.442330,-20.502200,0 -43.442457,-20.502277,0 -43.442798,-20.501960,0 -43.442798,-20.501960,0 -43.442798,-20.501960,0 -43.444248,-20.499705,0 -43.447207,-20.497735,0 -43.449508,-20.497245,0 -43.451917,-20.495832,0 -43.454658,-20.497043,0 -43.458228,-20.496952,0 -43.461912,-20.495615,0 -43.462722,-20.495812,0 -43.461487,-20.497457,0 -43.461622,-20.498248,0 -43.463877,-20.498135,0 -43.465538,-20.498200,0 -43.467625,-20.497348,0 -43.468848,-20.497045,0 -43.468895,-20.496975,0 -43.468895,-20.496975,0 -43.468895,-20.496975,0 -43.469237,-20.496922,0 -43.469237,-20.496922,0 -43.469237,-20.496922,0 -43.470077,-20.496578,0 -43.473083,-20.495335,0 -43.473083,-20.495335,0 -43.473083,-20.495335,0 -43.473083,-20.495335,0 -43.473865,-20.495260,0 -43.473865,-20.495260,0 -43.473865,-20.495260,0 -43.478162,-20.495950,0 -43.483218,-20.496160,0 -43.488272,-20.496267,0 -43.493990,-20.494755,0 -43.499130,-20.496153,0 -43.502175,-20.498642,0 -43.504672,-20.496052,0 -43.511075,-20.496383,0 -43.516902,-20.497095,0 -43.522117,-20.501583,0 -43.525852,-20.499462,0 -43.527923,-20.497570,0 -43.531952,-20.496380,0 -43.537577,-20.494597,0 -43.541863,-20.495313,0 -43.540985,-20.494075,0 -43.542055,-20.490885,0 -43.542873,-20.487340,0 -43.546085,-20.484610,0 -43.548148,-20.481105,0 -43.548617,-20.478452,0 -43.550402,-20.475445,0 -43.552217,-20.471442,0 -43.553523,-20.465178,0 -43.554895,-20.461548,0 -43.554310,-20.454888,0 -43.552662,-20.452003,0 -43.559947,-20.445573,0 -43.563515,-20.441447,0 -43.563515,-20.441447,0 -43.563515,-20.441447,0 -43.563187,-20.440813,0 -43.563187,-20.440813,0 -43.563187,-20.440813,0 -43.561102,-20.438820,0 -43.555232,-20.431687,0 -43.555500,-20.430443,0 -43.555500,-20.430443,0 -43.555500,-20.430443,0 -43.555715,-20.429523,0 -43.555715,-20.429523,0 -43.555715,-20.429523,0 -43.556503,-20.425925,0 -43.556503,-20.425925,0 -43.556503,-20.425925,0 -43.556540,-20.425655,0 -43.556565,-20.425162,0 -43.556565,-20.425162,0 -43.556565,-20.425162,0 -43.553567,-20.420677,0 -43.543773,-20.417457,0 -43.532622,-20.418188,0 -43.527383,-20.416107,0 -43.527383,-20.416107,0 -43.527383,-20.416107,0 -43.527108,-20.415288,0 -43.527108,-20.415288,0 -43.527108,-20.415288,0 -43.526590,-20.414280,0 -43.526563,-20.413365,0 -43.526563,-20.413365,0 -43.526563,-20.413365,0 -43.526440,-20.411617,0 -43.526440,-20.411617,0 -43.526440,-20.411617,0 -43.526193,-20.410272,0 -43.526392,-20.408272,0 -43.526392,-20.408272,0 -43.526392,-20.408272,0 -43.526442,-20.408028,0 -43.526442,-20.408028,0 -43.526442,-20.408028,0 -43.525918,-20.406997,0 -43.525313,-20.406612,0 -43.525313,-20.406612,0 -43.525313,-20.406612,0 -43.525027,-20.406383,0 -43.525027,-20.406383,0 -43.525027,-20.406383,0 -43.523785,-20.405363,0 -43.523785,-20.405363,0 -43.523785,-20.405363,0 -43.523613,-20.405227,0 -43.523613,-20.405227,0 -43.523613,-20.405227,0 -43.522270,-20.404140,0 -43.522270,-20.404140,0 -43.522270,-20.404140,0 -43.522115,-20.404022,0 -43.522115,-20.404022,0 -43.522115,-20.404022,0 -43.521602,-20.403638,0 -43.521602,-20.403638,0 -43.521602,-20.403638,0 -43.521225,-20.403425,0 -43.521083,-20.403027,0 -43.521083,-20.403027,0 -43.521083,-20.403027,0 -43.520520,-20.401890,0 -43.520520,-20.401890,0 -43.520520,-20.401890,0 -43.520400,-20.401642,0 -43.520400,-20.401642,0 -43.520400,-20.401642,0 -43.519752,-20.400337,0 -43.519752,-20.400337,0 -43.519752,-20.400337,0 -43.519717,-20.400263,0 -43.519717,-20.400263,0 -43.519717,-20.400263,0 -43.518982,-20.398845,0 -43.518982,-20.398845,0 -43.518982,-20.398845,0 -43.518657,-20.398778,0 -43.518558,-20.398863,0 -43.518558,-20.398863,0 -43.518558,-20.398863,0 -43.516305,-20.400907,0 -43.515685,-20.401630,0 -43.515685,-20.401630,0 -43.515685,-20.401630,0 -43.515608,-20.401710,0 -43.515608,-20.401710,0 -43.515608,-20.401710,0 -43.512062,-20.403370,0 -43.510915,-20.402542,0 -43.510915,-20.402542,0 -43.510915,-20.402542,0 -43.510572,-20.402460,0 -43.510572,-20.402460,0 -43.510572,-20.402460,0 -43.510297,-20.402427,0 -43.510053,-20.402413,0 -43.510053,-20.402413,0 -43.510053,-20.402413,0 -43.509782,-20.402383,0 -43.509782,-20.402383,0 -43.509782,-20.402383,0 -43.507917,-20.401798,0 -43.507408,-20.401740,0 -43.507408,-20.401740,0 -43.507408,-20.401740,0 -43.507267,-20.401737,0 -43.507267,-20.401737,0 -43.507267,-20.401737,0 -43.506633,-20.401403,0 -43.506633,-20.401403,0 -43.506633,-20.401403,0 -43.506580,-20.401342,0 -43.506580,-20.401342,0 -43.506580,-20.401342,0 -43.504670,-20.400603,0 -43.504667,-20.400602,0 -43.504667,-20.400602,0 -43.504667,-20.400602,0 -43.504472,-20.400557,0 -43.504472,-20.400557,0 -43.504472,-20.400557,0 -43.503598,-20.399177,0 -43.503598,-20.399177,0 -43.503598,-20.399177,0 -43.503482,-20.398942,0 -43.503482,-20.398942,0 -43.503482,-20.398942,0 -43.502467,-20.397635,0 -43.502347,-20.397533,0 -43.502347,-20.397533,0 -43.502347,-20.397533,0 -43.502208,-20.397402,0 -43.502208,-20.397402,0 -43.502208,-20.397402,0 -43.501468,-20.396520,0 -43.501468,-20.396520,0 -43.501468,-20.396520,0 -43.501398,-20.396438,0 -43.501398,-20.396438,0 -43.501398,-20.396438,0 -43.500535,-20.395982,0 -43.500535,-20.395982,0 -43.500535,-20.395982,0 -43.500218,-20.395970,0 -43.500218,-20.395970,0 -43.500218,-20.395970,0 -43.499825,-20.396035,0 -43.499825,-20.396035,0 -43.499825,-20.396035,0 -43.499542,-20.395907,0 -43.499542,-20.395907,0 -43.499542,-20.395907,0 -43.499542,-20.395907,0 -43.500242,-20.393440,0 -43.500242,-20.393440,0 -43.500242,-20.393440,0 -43.500498,-20.393208,0 -43.500498,-20.393208,0 -43.500498,-20.393208,0 -43.501603,-20.391297,0 -43.501725,-20.391022,0 -43.501725,-20.391022,0 -43.501725,-20.391022,0 -43.502078,-20.391022,0 -43.502078,-20.391022,0 -43.502078,-20.391022,0 -43.502165,-20.391013,0 -43.502165,-20.391013,0 -43.502165,-20.391013,0 -43.502515,-20.390975,0 -43.502515,-20.390975,0 -43.502515,-20.390975,0 -43.503713,-20.390782,0 -43.504045,-20.390778,0 -43.504045,-20.390778,0 -43.504045,-20.390778,0 -43.504360,-20.390868,0 -43.504360,-20.390868,0 -43.504360,-20.390868,0 -43.506267,-20.390807,0        </coordinates>      </LineString>    </Placemark>    <Placemark> <name>PONTO BAÚ</name>  <styleUrl>#stylefirst</styleUrl>     <Point> <coordinates>-43.442330,-20.502200,0 </coordinates>  </Point>  </Placemark>    <Placemark> <name>ESTRADA DO SALTO </name>  <styleUrl>#colorstyle</styleUrl>     <Point> <coordinates>-43.473380,-20.495280,0 </coordinates>  </Point>  </Placemark>    <Placemark> <name>RANCHARIA </name>  <styleUrl>#colorstyle</styleUrl>     <Point> <coordinates>-43.555612,-20.430014,0 </coordinates>  </Point>  </Placemark>    <Placemark> <name>NEXUS</name>  <styleUrl>#colorstyle</styleUrl>     <Point> <coordinates>-43.556590,-20.425640,0 </coordinates>  </Point>  </Placemark>    <Placemark> <name>PONTO FINAL SARAMENHA</name>  <styleUrl>#colorstyle</styleUrl>     <Point> <coordinates>-43.526370,-20.412540,0 </coordinates>  </Point>  </Placemark>    <Placemark> <name>TERMINAL NOVELIS</name>  <styleUrl>#colorstyle</styleUrl>     <Point> <coordinates>-43.518730,-20.398500,0 </coordinates>  </Point>  </Placemark>    <Placemark> <name>PONTO JK</name>  <styleUrl>#colorstyle</styleUrl>     <Point> <coordinates>-43.507370,-20.401741,0 </coordinates>  </Point>  </Placemark>    <Placemark> <name>PONTO IFMG</name>  <styleUrl>#colorstyle</styleUrl>     <Point> <coordinates>-43.500410,-20.395900,0 </coordinates>  </Point>  </Placemark>    <Placemark> <name>PONTO ESTAÇÃO FERROVIÁRIA</name>  <styleUrl>#stylelast</styleUrl>     <Point> <coordinates>-43.506461,-20.390727,0 </coordinates>  </Point>  </Placemark> </Folder></Document> </kml> 
