<?xml version="1.0" encoding="UTF-8"?> <kml xmlns="http://www.opengis.net/kml/2.2"> <Document> <Style id="colorstyle">     <IconStyle>        <color>5f000000</color>        <colorMode>0</colorMode>        <scale>0.7</scale>        <Icon>           <href>http://maps.google.com/mapfiles/kml/pal4/icon25.png</href>        </Icon>     </IconStyle>  </Style>  <Style id="stylefirst">     <IconStyle>        <color>64901200</color>        <scale>1.1</scale>        <Icon>           <href>http://google.com/mapfiles/ms/micons/flag.png</href>        </Icon>     </IconStyle>  </Style>  <Style id="stylelast">     <IconStyle>        <color>641400FF</color>        <scale>1.1</scale>        <Icon>           <href>http://google.com/mapfiles/ms/micons/flag.png</href>        </Icon>     </IconStyle>  </Style> <name>Itinerários</name><Folder><Style id="linestyle">   <LineStyle> <color>5aFF0000</color>    <width>4</width>   </LineStyle> </Style> <name>CONSORCIO ROTA REAL - TR - SARAMENHA X SAO CRISTOVAO - Ida</name> <open>1</open>    <Placemark>    <name> SARAMENHA X SÃO CRISTOVÃO </name>    <description><![CDATA[<div dir="ltr">Número 001 <br>Linha: SARAMENHA X SÃO CRISTOVÃO<br></div>]]></description>      <styleUrl>#linestyle</styleUrl>      <LineString>        <tessellate>1</tessellate>        <coordinates> -43.526650,-20.412785,0 -43.526502,-20.411712,0 -43.526206,-20.410933,0 -43.526182,-20.410150,0 -43.526163,-20.409867,0 -43.526206,-20.408863,0 -43.526428,-20.407895,0 -43.526448,-20.407825,0 -43.526493,-20.407267,0 -43.526297,-20.407083,0 -43.525255,-20.406577,0 -43.521973,-20.403853,0 -43.521427,-20.403555,0 -43.521238,-20.403518,0 -43.521183,-20.403432,0 -43.520937,-20.402718,0 -43.519598,-20.400023,0 -43.519006,-20.398811,0 -43.518593,-20.398390,0 -43.518553,-20.398347,0 -43.518498,-20.398212,0 -43.518580,-20.398080,0 -43.518625,-20.398097,0 -43.518698,-20.398203,0 -43.518682,-20.398165,0 -43.518808,-20.398428,0 -43.518847,-20.398638,0 -43.518665,-20.398677,0 -43.517632,-20.399562,0 -43.516766,-20.400096,0 -43.515804,-20.401378,0 -43.515522,-20.401663,0 -43.513774,-20.402401,0 -43.513402,-20.402694,0 -43.512483,-20.403314,0 -43.512280,-20.403363,0 -43.512120,-20.403372,0 -43.511937,-20.403292,0 -43.511217,-20.402753,0 -43.510827,-20.402530,0 -43.510780,-20.402532,0 -43.510652,-20.402577,0 -43.510150,-20.403132,0 -43.510142,-20.403205,0 -43.510418,-20.403450,0 -43.510522,-20.403455,0 -43.510890,-20.403297,0 -43.510937,-20.403183,0 -43.510897,-20.403040,0 -43.510692,-20.402863,0 -43.510602,-20.402753,0 -43.510590,-20.402743,0 -43.510582,-20.402685,0 -43.510663,-20.402510,0 -43.510628,-20.402470,0 -43.510577,-20.402457,0 -43.509817,-20.402347,0 -43.509446,-20.402280,0 -43.509157,-20.402115,0 -43.508351,-20.401799,0 -43.507612,-20.401740,0 -43.506887,-20.401660,0 -43.506046,-20.400831,0 -43.505840,-20.400710,0 -43.505377,-20.400610,0 -43.504938,-20.400582,0 -43.504717,-20.400585,0 -43.504313,-20.400457,0 -43.504168,-20.400353,0 -43.503713,-20.399433,0 -43.503491,-20.399017,0 -43.503117,-20.398185,0 -43.503017,-20.398062,0 -43.502788,-20.397838,0 -43.502443,-20.397547,0 -43.501823,-20.396973,0 -43.501288,-20.396295,0 -43.501153,-20.396173,0 -43.501090,-20.396140,0 -43.500715,-20.396012,0 -43.500650,-20.395992,0 -43.500300,-20.395915,0 -43.499528,-20.395925,0 -43.498953,-20.395287,0 -43.498901,-20.395105,0 -43.498944,-20.394818,0 -43.499057,-20.394427,0 -43.500329,-20.393248,0 -43.500874,-20.392767,0 -43.501246,-20.392316,0 -43.501388,-20.391999,0 -43.501500,-20.391612,0 -43.501609,-20.391076,0 -43.502207,-20.390992,0 -43.502480,-20.390938,0 -43.502695,-20.390912,0 -43.503040,-20.390843,0 -43.503213,-20.390815,0 -43.503703,-20.390752,0 -43.503963,-20.390740,0 -43.504107,-20.390775,0 -43.505008,-20.391001,0 -43.505414,-20.390998,0 -43.505677,-20.390943,0 -43.506137,-20.390795,0 -43.506427,-20.390589,0 -43.506500,-20.390381,0 -43.506545,-20.390108,0 -43.506569,-20.389597,0 -43.506000,-20.388673,0 -43.505365,-20.387817,0 -43.505142,-20.387617,0 -43.505048,-20.387525,0 -43.504942,-20.387508,0 -43.504331,-20.387483,0 -43.504261,-20.387425,0 -43.504155,-20.387082,0 -43.504137,-20.386853,0 -43.504147,-20.386837,0 -43.504158,-20.386820,0 -43.504172,-20.386773,0 -43.504133,-20.386703,0 -43.503697,-20.386453,0 -43.503598,-20.386357,0 -43.503590,-20.386322,0 -43.503460,-20.385338,0 -43.503481,-20.384854,0 -43.503690,-20.384797,0 -43.503802,-20.384631,0 -43.504028,-20.383971,0 -43.504234,-20.383599,0 -43.504530,-20.383033,0 -43.504546,-20.382574,0 -43.504515,-20.382184,0 -43.504645,-20.381966,0 -43.504936,-20.381718,0 -43.505402,-20.381346,0 -43.506451,-20.380762,0 -43.507197,-20.380500,0 -43.507405,-20.380420,0 -43.507483,-20.380427,0 -43.507467,-20.380614,0 -43.507419,-20.380795,0 -43.507407,-20.380857,0 -43.507325,-20.380843,0 -43.507082,-20.380707,0 -43.507035,-20.380658,0 -43.507040,-20.380587,0 -43.507075,-20.380540,0 -43.507245,-20.380467,0 -43.507552,-20.380313,0 -43.507708,-20.380230,0 -43.509098,-20.379440,0 -43.509803,-20.379162,0 -43.510580,-20.378911,0 -43.511784,-20.378487,0 -43.513375,-20.377891,0 -43.513767,-20.377857,0 -43.514218,-20.377873,0 -43.514428,-20.377922,0 -43.514620,-20.377972,0 -43.514717,-20.378010,0 -43.514827,-20.378063,0 -43.514900,-20.378093,0 -43.516653,-20.379013,0 -43.516852,-20.379058,0 -43.518478,-20.379144,0 -43.518980,-20.379183,0 -43.518980,-20.379482,0 -43.518844,-20.379703,0 -43.518611,-20.380544,0 -43.517739,-20.380323,0        </coordinates>      </LineString>    </Placemark>    <Placemark> <name>PONTO FINAL SARAMENHA</name>  <styleUrl>#stylefirst</styleUrl>     <Point> <coordinates>-43.526370,-20.412540,0 </coordinates>  </Point>  </Placemark>    <Placemark> <name>PONTO PRÓ MELHORAMENTOS</name>  <styleUrl>#colorstyle</styleUrl>     <Point> <coordinates>-43.510590,-20.402830,0 </coordinates>  </Point>  </Placemark>    <Placemark> <name>PONTO IFMG</name>  <styleUrl>#colorstyle</styleUrl>     <Point> <coordinates>-43.500410,-20.395900,0 </coordinates>  </Point>  </Placemark>    <Placemark> <name>PONTO DA BARRA</name>  <styleUrl>#colorstyle</styleUrl>     <Point> <coordinates>-43.502330,-20.390970,0 </coordinates>  </Point>  </Placemark>    <Placemark> <name>PONTO FINAL SÃO CRISTOVÃO</name>  <styleUrl>#stylelast</styleUrl>     <Point> <coordinates>-43.517740,-20.380090,0 </coordinates>  </Point>  </Placemark> </Folder></Document> </kml> 
