<?xml version="1.0" encoding="UTF-8"?> <kml xmlns="http://www.opengis.net/kml/2.2"> <Document> <Style id="colorstyle">     <IconStyle>        <color>5f000000</color>        <colorMode>0</colorMode>        <scale>0.7</scale>        <Icon>           <href>http://maps.google.com/mapfiles/kml/pal4/icon25.png</href>        </Icon>     </IconStyle>  </Style>  <Style id="stylefirst">     <IconStyle>        <color>64901200</color>        <scale>1.1</scale>        <Icon>           <href>http://google.com/mapfiles/ms/micons/flag.png</href>        </Icon>     </IconStyle>  </Style>  <Style id="stylelast">     <IconStyle>        <color>641400FF</color>        <scale>1.1</scale>        <Icon>           <href>http://google.com/mapfiles/ms/micons/flag.png</href>        </Icon>     </IconStyle>  </Style> <name>Itinerários</name><Folder><Style id="linestyle">   <LineStyle> <color>5aFF0000</color>    <width>4</width>   </LineStyle> </Style> <name>DISTRITAL - OURO PRETO - SERRA DOS CARDOSOS X OURO PRETO  - Ida</name> <open>1</open>    <Placemark>    <name> SERRA DOS CARDOSOS X OURO PRETO  </name>    <description><![CDATA[<div dir="ltr">Número 028 <br>Linha: SERRA DOS CARDOSOS X OURO PRETO <br></div>]]></description>      <styleUrl>#linestyle</styleUrl>      <LineString>        <tessellate>1</tessellate>        <coordinates> -43.425920,-20.551610,0 -43.425918,-20.551815,0 -43.424948,-20.557198,0 -43.422710,-20.559658,0 -43.420018,-20.565220,0 -43.419617,-20.573955,0 -43.422622,-20.579635,0 -43.428973,-20.578928,0 -43.429440,-20.579273,0 -43.429291,-20.579330,0 -43.429290,-20.579330,0 -43.429293,-20.579323,0 -43.429315,-20.579332,0 -43.429303,-20.579340,0 -43.429323,-20.579332,0 -43.429302,-20.579400,0 -43.429292,-20.579352,0 -43.429243,-20.579287,0 -43.429277,-20.579332,0 -43.429340,-20.579350,0 -43.429317,-20.579360,0 -43.429293,-20.579320,0 -43.429333,-20.579337,0 -43.429313,-20.579345,0 -43.429310,-20.579287,0 -43.429280,-20.579302,0 -43.429288,-20.579295,0 -43.429298,-20.579321,0 -43.429298,-20.579321,0 -43.429320,-20.579300,0 -43.429463,-20.579247,0 -43.429317,-20.578800,0 -43.422635,-20.579560,0 -43.420115,-20.573533,0 -43.419943,-20.565487,0 -43.422732,-20.559665,0 -43.425328,-20.555517,0 -43.426002,-20.553098,0 -43.425502,-20.555125,0 -43.424317,-20.558323,0 -43.421817,-20.560897,0 -43.421823,-20.560900,0 -43.419683,-20.567572,0 -43.419243,-20.575310,0 -43.423967,-20.579985,0 -43.429438,-20.578710,0 -43.431198,-20.577787,0 -43.433402,-20.574902,0 -43.433388,-20.574895,0 -43.435588,-20.574633,0 -43.441972,-20.572885,0 -43.443733,-20.571720,0 -43.449983,-20.570603,0 -43.458277,-20.569058,0 -43.460463,-20.569912,0 -43.467703,-20.567110,0 -43.467698,-20.567110,0 -43.472478,-20.566882,0 -43.479538,-20.566767,0 -43.486592,-20.566467,0 -43.491475,-20.561350,0 -43.497345,-20.557147,0 -43.500287,-20.554167,0 -43.505320,-20.551138,0 -43.513927,-20.546958,0 -43.519085,-20.544178,0 -43.524380,-20.539870,0 -43.531440,-20.538925,0 -43.536572,-20.534530,0 -43.542513,-20.532425,0 -43.548143,-20.531013,0 -43.551478,-20.533905,0 -43.551422,-20.534014,0 -43.551423,-20.534013,0 -43.551430,-20.533992,0 -43.551452,-20.534017,0 -43.551478,-20.534002,0 -43.551438,-20.534063,0 -43.551441,-20.534069,0 -43.551441,-20.534069,0 -43.551467,-20.534050,0 -43.553808,-20.531577,0 -43.557315,-20.529345,0 -43.558948,-20.529252,0 -43.561752,-20.530122,0 -43.569900,-20.530708,0 -43.570098,-20.531012,0 -43.575183,-20.521918,0 -43.583292,-20.516210,0 -43.582303,-20.510353,0 -43.590673,-20.505548,0 -43.588327,-20.496630,0 -43.595313,-20.483872,0 -43.591203,-20.481757,0 -43.592625,-20.477165,0 -43.592625,-20.469617,0 -43.588820,-20.460792,0 -43.576482,-20.457032,0 -43.572797,-20.447050,0 -43.567298,-20.442468,0 -43.562362,-20.440457,0 -43.556077,-20.432572,0 -43.556633,-20.424808,0 -43.547893,-20.419810,0 -43.535510,-20.418363,0 -43.527090,-20.415262,0 -43.526580,-20.414273,0 -43.526535,-20.413680,0 -43.526610,-20.412370,0 -43.526393,-20.411400,0 -43.526217,-20.410290,0 -43.526170,-20.409707,0 -43.526302,-20.408457,0 -43.526308,-20.408405,0 -43.526348,-20.408317,0 -43.525322,-20.406632,0 -43.525220,-20.406565,0 -43.524875,-20.406238,0 -43.523898,-20.405433,0 -43.523518,-20.405107,0 -43.521895,-20.403823,0 -43.521307,-20.403567,0 -43.520952,-20.402718,0 -43.520195,-20.401140,0 -43.519813,-20.400373,0 -43.519778,-20.400307,0 -43.519708,-20.400173,0 -43.519555,-20.399878,0 -43.519073,-20.398952,0 -43.518557,-20.398883,0 -43.517178,-20.399898,0 -43.517047,-20.399983,0 -43.516713,-20.400370,0 -43.516365,-20.400825,0 -43.516103,-20.401168,0 -43.516012,-20.401283,0 -43.515558,-20.401718,0 -43.515025,-20.401898,0 -43.511493,-20.402948,0 -43.511215,-20.402740,0 -43.511215,-20.402740,0 -43.509885,-20.402357,0 -43.509853,-20.402340,0 -43.509813,-20.402330,0 -43.505485,-20.400662,0 -43.504752,-20.400603,0 -43.504683,-20.400595,0 -43.503707,-20.399377,0 -43.503452,-20.398858,0 -43.503413,-20.398782,0 -43.503405,-20.398762,0 -43.503195,-20.398350,0 -43.503158,-20.398285,0 -43.502860,-20.397937,0 -43.502697,-20.397793,0 -43.502407,-20.397532,0 -43.501290,-20.396302,0 -43.501140,-20.396178,0 -43.500612,-20.395957,0 -43.500180,-20.395910,0 -43.500037,-20.395932,0 -43.498918,-20.395085,0 -43.499052,-20.394582,0 -43.499075,-20.394500,0 -43.502102,-20.391015,0 -43.502392,-20.390938,0 -43.502628,-20.390908,0 -43.502733,-20.390887,0 -43.503217,-20.390810,0 -43.503662,-20.390755,0 -43.504110,-20.390765,0 -43.505235,-20.391038,0 -43.506238,-20.390808,0        </coordinates>      </LineString>    </Placemark>    <Placemark> <name>PONTO INICIAL SERRA</name>  <styleUrl>#stylefirst</styleUrl>     <Point> <coordinates>-43.425920,-20.551610,0 </coordinates>  </Point>  </Placemark>    <Placemark> <name>PONTO POSTO DE GASOLINA SANTA RITA </name>  <styleUrl>#colorstyle</styleUrl>     <Point> <coordinates>-43.556620,-20.529810,0 </coordinates>  </Point>  </Placemark>    <Placemark> <name>Entrada de Santa Rita de Ouro Preto</name>  <styleUrl>#colorstyle</styleUrl>     <Point> <coordinates>-43.595660,-20.484000,0 </coordinates>  </Point>  </Placemark>    <Placemark> <name>RANCHARIA </name>  <styleUrl>#colorstyle</styleUrl>     <Point> <coordinates>-43.555612,-20.430014,0 </coordinates>  </Point>  </Placemark>    <Placemark> <name>NEXUS</name>  <styleUrl>#colorstyle</styleUrl>     <Point> <coordinates>-43.556590,-20.425640,0 </coordinates>  </Point>  </Placemark>    <Placemark> <name>PONTO FINAL SARAMENHA</name>  <styleUrl>#colorstyle</styleUrl>     <Point> <coordinates>-43.526370,-20.412540,0 </coordinates>  </Point>  </Placemark>    <Placemark> <name>TERMINAL NOVELIS</name>  <styleUrl>#colorstyle</styleUrl>     <Point> <coordinates>-43.518730,-20.398500,0 </coordinates>  </Point>  </Placemark>    <Placemark> <name>PONTO IFMG</name>  <styleUrl>#colorstyle</styleUrl>     <Point> <coordinates>-43.500410,-20.395900,0 </coordinates>  </Point>  </Placemark>    <Placemark> <name>PONTO ESTAÇÃO FERROVIÁRIA</name>  <styleUrl>#stylelast</styleUrl>     <Point> <coordinates>-43.506461,-20.390727,0 </coordinates>  </Point>  </Placemark> </Folder></Document> </kml> 
