<?xml version="1.0" encoding="UTF-8"?> <kml xmlns="http://www.opengis.net/kml/2.2"> <Document> <Style id="colorstyle">     <IconStyle>        <color>5f000000</color>        <colorMode>0</colorMode>        <scale>0.7</scale>        <Icon>           <href>http://maps.google.com/mapfiles/kml/pal4/icon25.png</href>        </Icon>     </IconStyle>  </Style>  <Style id="stylefirst">     <IconStyle>        <color>64901200</color>        <scale>1.1</scale>        <Icon>           <href>http://google.com/mapfiles/ms/micons/flag.png</href>        </Icon>     </IconStyle>  </Style>  <Style id="stylelast">     <IconStyle>        <color>641400FF</color>        <scale>1.1</scale>        <Icon>           <href>http://google.com/mapfiles/ms/micons/flag.png</href>        </Icon>     </IconStyle>  </Style> <name>Itinerários</name><Folder><Style id="linestyle">   <LineStyle> <color>5aFF0000</color>    <width>4</width>   </LineStyle> </Style> <name>CONSORCIO ROTA REAL - TR - SAO CRISTOVAO X MORRO SANTANA - Unico</name> <open>1</open>    <Placemark>    <name> SÃO CRISTOVÃO X MORRO SANTANA </name>    <description><![CDATA[<div dir="ltr">Número 005 <br>Linha: SÃO CRISTOVÃO X MORRO SANTANA<br></div>]]></description>      <styleUrl>#linestyle</styleUrl>      <LineString>        <tessellate>1</tessellate>        <coordinates> -43.517740,-20.380090,0 -43.517390,-20.379650,0 -43.517387,-20.379638,0 -43.517387,-20.379638,0 -43.517387,-20.379638,0 -43.517395,-20.379593,0 -43.517277,-20.379370,0 -43.517178,-20.379107,0 -43.517117,-20.379084,0 -43.517082,-20.379078,0 -43.517082,-20.379078,0 -43.517082,-20.379078,0 -43.516633,-20.379002,0 -43.516450,-20.378917,0 -43.516450,-20.378917,0 -43.516450,-20.378917,0 -43.515273,-20.378233,0 -43.515273,-20.378233,0 -43.515273,-20.378233,0 -43.515153,-20.378168,0 -43.515153,-20.378168,0 -43.515153,-20.378168,0 -43.514528,-20.377985,0 -43.514513,-20.377968,0 -43.514420,-20.377943,0 -43.514420,-20.377943,0 -43.514420,-20.377943,0 -43.514102,-20.377893,0 -43.514102,-20.377893,0 -43.514102,-20.377893,0 -43.513371,-20.377966,0 -43.511577,-20.378637,0 -43.510968,-20.378895,0 -43.510968,-20.378895,0 -43.510968,-20.378895,0 -43.510758,-20.378945,0 -43.510758,-20.378945,0 -43.510758,-20.378945,0 -43.508738,-20.379723,0 -43.507576,-20.380396,0 -43.507534,-20.380550,0 -43.507505,-20.380717,0 -43.507493,-20.380752,0 -43.507493,-20.380752,0 -43.507493,-20.380752,0 -43.507397,-20.380880,0 -43.507418,-20.380860,0 -43.507328,-20.380894,0 -43.507259,-20.380865,0 -43.507222,-20.380840,0 -43.507222,-20.380840,0 -43.507222,-20.380840,0 -43.506938,-20.380722,0 -43.506938,-20.380722,0 -43.506938,-20.380722,0 -43.506767,-20.380724,0 -43.506767,-20.380723,0 -43.506767,-20.380723,0 -43.506767,-20.380723,0 -43.505400,-20.381455,0 -43.505058,-20.381702,0 -43.504928,-20.381815,0 -43.504928,-20.381815,0 -43.504928,-20.381815,0 -43.504795,-20.381940,0 -43.504795,-20.381940,0 -43.504795,-20.381940,0 -43.504600,-20.382180,0 -43.504593,-20.382242,0 -43.504600,-20.382180,0 -43.504600,-20.382180,0 -43.504587,-20.382367,0 -43.504587,-20.382367,0 -43.504587,-20.382367,0 -43.504573,-20.382543,0 -43.504573,-20.382543,0 -43.504573,-20.382543,0 -43.504567,-20.382642,0 -43.504567,-20.382642,0 -43.504567,-20.382642,0 -43.503923,-20.384313,0 -43.503632,-20.384926,0 -43.503567,-20.384920,0 -43.503460,-20.384851,0 -43.503275,-20.384653,0 -43.503235,-20.384546,0 -43.503227,-20.384242,0 -43.503227,-20.384242,0 -43.503227,-20.384242,0 -43.503265,-20.384143,0 -43.503278,-20.384138,0 -43.503298,-20.384040,0 -43.503298,-20.384040,0 -43.503298,-20.384040,0 -43.503313,-20.383877,0 -43.503313,-20.383877,0 -43.503313,-20.383877,0 -43.503320,-20.383718,0 -43.503320,-20.383718,0 -43.503320,-20.383718,0 -43.503338,-20.383480,0 -43.503338,-20.383326,0 -43.503117,-20.383017,0 -43.503017,-20.383003,0 -43.502673,-20.382992,0 -43.501070,-20.383228,0 -43.499783,-20.383690,0 -43.499742,-20.383707,0 -43.499742,-20.383707,0 -43.499742,-20.383707,0 -43.499645,-20.383742,0 -43.499645,-20.383742,0 -43.499645,-20.383742,0 -43.497837,-20.384241,0 -43.497837,-20.384242,0 -43.497555,-20.384583,0 -43.497459,-20.384817,0 -43.497372,-20.384845,0 -43.497372,-20.384845,0 -43.497372,-20.384845,0 -43.497168,-20.384952,0 -43.497143,-20.384966,0 -43.497047,-20.384973,0 -43.497047,-20.384973,0 -43.497047,-20.384973,0 -43.496568,-20.384853,0 -43.496544,-20.384836,0 -43.496418,-20.384727,0 -43.496292,-20.384542,0 -43.496235,-20.384483,0 -43.496155,-20.384464,0 -43.496090,-20.384491,0 -43.496033,-20.384520,0 -43.495556,-20.384632,0 -43.495423,-20.384635,0 -43.494668,-20.384650,0 -43.494148,-20.384521,0 -43.493757,-20.384353,0 -43.493320,-20.384148,0 -43.493156,-20.383989,0 -43.492995,-20.383903,0 -43.492954,-20.383904,0 -43.492744,-20.383869,0 -43.492462,-20.383657,0 -43.492460,-20.383542,0 -43.492290,-20.383202,0 -43.491577,-20.382830,0 -43.491123,-20.382669,0 -43.491125,-20.382670,0 -43.490273,-20.382721,0 -43.489922,-20.382584,0 -43.489841,-20.382675,0 -43.489666,-20.382845,0 -43.489703,-20.382828,0 -43.488480,-20.383169,0 -43.488258,-20.383070,0 -43.488257,-20.383070,0 -43.487890,-20.382912,0 -43.487890,-20.382912,0 -43.487890,-20.382912,0 -43.487797,-20.382900,0 -43.487347,-20.382825,0 -43.487347,-20.382825,0 -43.487347,-20.382825,0 -43.486680,-20.382643,0 -43.486253,-20.382508,0 -43.485628,-20.382207,0 -43.485321,-20.382013,0 -43.484684,-20.381498,0 -43.484675,-20.381465,0 -43.484222,-20.380459,0 -43.484110,-20.380382,0 -43.484013,-20.380255,0 -43.484001,-20.380045,0 -43.484007,-20.380038,0 -43.484200,-20.379808,0 -43.484524,-20.379494,0 -43.484507,-20.379540,0 -43.484512,-20.379330,0 -43.484058,-20.378733,0 -43.483375,-20.378417,0 -43.482988,-20.378177,0 -43.481428,-20.377405,0 -43.480928,-20.376942,0 -43.480010,-20.375962,0 -43.480003,-20.375946,0 -43.479954,-20.375746,0 -43.480030,-20.375721,0 -43.480122,-20.375755,0 -43.480470,-20.376002,0 -43.481220,-20.376230,0 -43.481417,-20.376212,0 -43.482296,-20.376062,0 -43.482258,-20.376090,0 -43.482971,-20.375708,0 -43.484198,-20.375972,0 -43.484325,-20.375987,0 -43.484325,-20.375987,0 -43.484325,-20.375987,0 -43.484768,-20.376156,0 -43.484903,-20.376290,0 -43.485132,-20.376642,0 -43.485132,-20.376642,0 -43.485132,-20.376642,0 -43.485912,-20.377041,0 -43.485987,-20.377533,0 -43.485980,-20.377790,0 -43.486417,-20.378742,0 -43.486380,-20.378845,0 -43.486351,-20.378910,0 -43.486332,-20.379187,0 -43.486528,-20.379523,0 -43.486642,-20.379623,0 -43.486713,-20.379679,0 -43.486802,-20.379715,0 -43.486946,-20.379765,0 -43.487148,-20.379894,0 -43.487150,-20.379895,0 -43.487872,-20.381077,0 -43.488472,-20.381625,0 -43.488547,-20.381762,0 -43.488547,-20.381762,0 -43.488547,-20.381762,0 -43.488556,-20.381830,0 -43.488655,-20.382044,0 -43.488964,-20.382215,0 -43.488850,-20.382456,0 -43.488783,-20.382548,0 -43.488686,-20.382641,0 -43.488655,-20.382653,0 -43.488655,-20.382653,0 -43.488655,-20.382653,0 -43.488483,-20.382668,0 -43.487705,-20.382502,0 -43.487667,-20.382574,0 -43.487720,-20.382751,0 -43.487697,-20.382717,0 -43.487697,-20.382717,0 -43.487697,-20.382717,0 -43.487917,-20.382860,0 -43.487917,-20.382860,0 -43.487917,-20.382860,0 -43.488335,-20.383125,0 -43.488282,-20.383105,0 -43.488525,-20.383141,0 -43.489697,-20.382769,0 -43.489727,-20.382733,0 -43.489937,-20.382565,0 -43.490067,-20.382610,0 -43.490570,-20.382778,0 -43.491383,-20.382702,0 -43.491528,-20.382759,0 -43.492470,-20.383343,0 -43.492487,-20.383415,0 -43.492619,-20.383816,0 -43.493158,-20.383992,0 -43.493970,-20.384442,0 -43.494720,-20.384670,0 -43.495377,-20.384655,0 -43.495827,-20.384558,0 -43.495992,-20.384448,0 -43.496185,-20.384462,0 -43.496662,-20.384850,0 -43.497185,-20.384897,0 -43.497185,-20.384897,0 -43.497185,-20.384897,0 -43.497185,-20.384897,0 -43.497185,-20.384897,0 -43.497437,-20.384805,0 -43.497437,-20.384805,0 -43.497437,-20.384805,0 -43.497482,-20.384750,0 -43.498020,-20.384146,0 -43.498475,-20.384020,0 -43.498554,-20.384016,0 -43.499512,-20.383785,0 -43.499685,-20.383720,0 -43.499685,-20.383720,0 -43.499685,-20.383720,0 -43.499838,-20.383678,0 -43.499838,-20.383678,0 -43.499838,-20.383678,0 -43.501382,-20.383063,0 -43.502113,-20.382790,0 -43.503047,-20.383003,0 -43.503159,-20.383087,0 -43.503304,-20.383434,0 -43.503313,-20.383833,0 -43.503313,-20.383833,0 -43.503313,-20.383833,0 -43.503302,-20.383967,0 -43.503302,-20.383967,0 -43.503302,-20.383967,0 -43.503283,-20.384022,0 -43.503252,-20.384087,0 -43.503252,-20.384087,0 -43.503252,-20.384087,0 -43.503233,-20.384318,0 -43.503233,-20.384318,0 -43.503233,-20.384318,0 -43.503342,-20.384689,0 -43.503586,-20.384863,0 -43.503647,-20.384880,0 -43.503687,-20.384822,0 -43.503845,-20.384516,0 -43.504123,-20.383867,0 -43.504573,-20.382553,0 -43.504573,-20.382553,0 -43.504573,-20.382553,0 -43.504575,-20.382440,0 -43.504575,-20.382440,0 -43.504575,-20.382440,0 -43.504605,-20.382225,0 -43.504605,-20.382225,0 -43.504605,-20.382225,0 -43.504723,-20.382036,0 -43.504773,-20.381988,0 -43.504773,-20.381988,0 -43.504773,-20.381988,0 -43.504865,-20.381888,0 -43.504865,-20.381888,0 -43.504865,-20.381888,0 -43.505013,-20.381742,0 -43.505013,-20.381742,0 -43.505013,-20.381742,0 -43.506312,-20.380942,0 -43.506828,-20.380668,0 -43.506828,-20.380668,0 -43.506828,-20.380668,0 -43.507244,-20.380487,0 -43.507245,-20.380488,0 -43.507245,-20.380488,0 -43.507245,-20.380488,0 -43.507442,-20.380427,0 -43.507488,-20.380444,0 -43.507549,-20.380518,0 -43.507530,-20.380659,0 -43.507547,-20.380608,0 -43.507547,-20.380608,0 -43.507547,-20.380608,0 -43.507532,-20.380660,0 -43.507532,-20.380660,0 -43.507532,-20.380660,0 -43.507490,-20.380775,0 -43.507490,-20.380775,0 -43.507490,-20.380775,0 -43.507397,-20.380903,0 -43.507305,-20.380903,0 -43.507245,-20.380868,0 -43.507245,-20.380868,0 -43.507245,-20.380868,0 -43.507214,-20.380846,0 -43.507027,-20.380737,0 -43.507012,-20.380722,0 -43.507012,-20.380722,0 -43.507012,-20.380722,0 -43.506996,-20.380674,0 -43.507008,-20.380634,0 -43.507061,-20.380594,0 -43.507245,-20.380492,0 -43.507245,-20.380492,0 -43.507245,-20.380492,0 -43.508642,-20.379750,0 -43.510088,-20.379127,0 -43.510950,-20.378875,0 -43.510950,-20.378875,0 -43.510950,-20.378875,0 -43.511152,-20.378808,0 -43.511152,-20.378808,0 -43.511152,-20.378808,0 -43.513649,-20.377928,0 -43.513537,-20.377950,0 -43.514165,-20.377927,0 -43.514165,-20.377927,0 -43.514165,-20.377927,0 -43.514520,-20.377993,0 -43.514520,-20.377993,0 -43.514520,-20.377993,0 -43.514870,-20.378105,0 -43.515220,-20.378230,0 -43.515220,-20.378230,0 -43.515220,-20.378230,0 -43.515253,-20.378235,0 -43.515285,-20.378257,0 -43.515285,-20.378257,0 -43.515285,-20.378257,0 -43.516507,-20.378923,0 -43.516507,-20.378923,0 -43.516507,-20.378923,0 -43.517150,-20.379082,0 -43.517195,-20.379085,0 -43.517195,-20.379085,0 -43.517195,-20.379085,0 -43.518123,-20.379165,0 -43.518123,-20.379165,0 -43.518123,-20.379165,0 -43.518323,-20.379165,0 -43.518323,-20.379165,0 -43.518323,-20.379165,0 -43.518967,-20.379322,0 -43.518970,-20.379454,0 -43.518980,-20.379410,0 -43.518980,-20.379410,0 -43.518980,-20.379410,0 -43.518898,-20.379637,0 -43.518898,-20.379637,0 -43.518898,-20.379637,0 -43.518589,-20.380411,0 -43.518553,-20.380447,0 -43.518553,-20.380447,0 -43.518553,-20.380447,0 -43.518417,-20.380499,0 -43.518363,-20.380497,0 -43.518363,-20.380497,0 -43.518363,-20.380497,0 -43.518140,-20.380450,0        </coordinates>      </LineString>    </Placemark>    <Placemark> <name>PONTO FINAL SÃO CRISTOVÃO</name>  <styleUrl>#stylefirst</styleUrl>     <Point> <coordinates>-43.517740,-20.380090,0 </coordinates>  </Point>  </Placemark>    <Placemark> <name>PONTO VELOSO</name>  <styleUrl>#colorstyle</styleUrl>     <Point> <coordinates>-43.514300,-20.377910,0 </coordinates>  </Point>  </Placemark>    <Placemark> <name>PONTO POSTO HORTO DOS CONTOS</name>  <styleUrl>#colorstyle</styleUrl>     <Point> <coordinates>-43.504844,-20.381789,0 </coordinates>  </Point>  </Placemark>    <Placemark> <name>PONTO POSTO HORTO DOS CONTOS</name>  <styleUrl>#colorstyle</styleUrl>     <Point> <coordinates>-43.504844,-20.381789,0 </coordinates>  </Point>  </Placemark>    <Placemark> <name>PONTO ZOCA</name>  <styleUrl>#colorstyle</styleUrl>     <Point> <coordinates>-43.497242,-20.384944,0 </coordinates>  </Point>  </Placemark>    <Placemark> <name>PONTO ZOCA</name>  <styleUrl>#colorstyle</styleUrl>     <Point> <coordinates>-43.497242,-20.384944,0 </coordinates>  </Point>  </Placemark>    <Placemark> <name>PONTO MORRO SANTANA</name>  <styleUrl>#colorstyle</styleUrl>     <Point> <coordinates>-43.487630,-20.382910,0 </coordinates>  </Point>  </Placemark>    <Placemark> <name>PONTO FINAL MORRO SANTANA</name>  <styleUrl>#colorstyle</styleUrl>     <Point> <coordinates>-43.488920,-20.382200,0 </coordinates>  </Point>  </Placemark>    <Placemark> <name>PONTO FINAL SÃO CRISTOVÃO</name>  <styleUrl>#stylelast</styleUrl>     <Point> <coordinates>-43.517740,-20.380090,0 </coordinates>  </Point>  </Placemark> </Folder></Document> </kml> 
