<?xml version="1.0" encoding="UTF-8"?> <kml xmlns="http://www.opengis.net/kml/2.2"> <Document> <Style id="colorstyle">     <IconStyle>        <color>5f000000</color>        <colorMode>0</colorMode>        <scale>0.7</scale>        <Icon>           <href>http://maps.google.com/mapfiles/kml/pal4/icon25.png</href>        </Icon>     </IconStyle>  </Style>  <Style id="stylefirst">     <IconStyle>        <color>64901200</color>        <scale>1.1</scale>        <Icon>           <href>http://google.com/mapfiles/ms/micons/flag.png</href>        </Icon>     </IconStyle>  </Style>  <Style id="stylelast">     <IconStyle>        <color>641400FF</color>        <scale>1.1</scale>        <Icon>           <href>http://google.com/mapfiles/ms/micons/flag.png</href>        </Icon>     </IconStyle>  </Style> <name>Itinerários</name><Folder><Style id="linestyle">   <LineStyle> <color>5aFF901E</color>    <width>4</width>   </LineStyle> </Style> <name>CONSORCIO ROTA REAL - TR - SAO CRISTOVAO X MORRO SAO SEBASTIAO - Unico</name> <open>1</open>    <Placemark>    <name> SÃO CRISTOVÃO X MORRO SÃO SEBASTIÃO </name>    <description><![CDATA[<div dir="ltr">Número 006 <br>Linha: SÃO CRISTOVÃO X MORRO SÃO SEBASTIÃO<br></div>]]></description>      <styleUrl>#linestyle</styleUrl>      <LineString>        <tessellate>1</tessellate>        <coordinates> -43.517740,-20.380090,0 -43.517696,-20.380213,0 -43.517442,-20.379617,0 -43.517442,-20.379617,0 -43.517442,-20.379617,0 -43.517143,-20.379091,0 -43.517097,-20.379082,0 -43.517097,-20.379082,0 -43.517097,-20.379082,0 -43.516438,-20.378893,0 -43.516438,-20.378893,0 -43.516438,-20.378893,0 -43.515233,-20.378203,0 -43.515233,-20.378203,0 -43.515233,-20.378203,0 -43.515130,-20.378160,0 -43.515130,-20.378160,0 -43.515130,-20.378160,0 -43.514620,-20.378045,0 -43.514435,-20.377982,0 -43.514435,-20.377982,0 -43.514435,-20.377982,0 -43.514097,-20.377912,0 -43.514097,-20.377912,0 -43.514097,-20.377912,0 -43.513821,-20.377922,0 -43.511012,-20.378845,0 -43.511012,-20.378845,0 -43.511012,-20.378845,0 -43.510728,-20.378952,0 -43.510728,-20.378952,0 -43.510728,-20.378952,0 -43.507767,-20.380243,0 -43.507656,-20.380325,0 -43.507599,-20.380478,0 -43.507595,-20.380583,0 -43.507595,-20.380583,0 -43.507595,-20.380583,0 -43.507540,-20.380738,0 -43.507540,-20.380738,0 -43.507540,-20.380738,0 -43.507454,-20.380863,0 -43.507370,-20.380871,0 -43.507413,-20.380875,0 -43.507413,-20.380875,0 -43.507413,-20.380875,0 -43.507240,-20.380800,0 -43.507240,-20.380800,0 -43.507240,-20.380800,0 -43.507240,-20.380800,0 -43.507023,-20.380703,0 -43.507023,-20.380703,0 -43.507023,-20.380703,0 -43.506882,-20.380695,0 -43.506752,-20.380737,0 -43.506752,-20.380737,0 -43.506752,-20.380737,0 -43.505878,-20.381207,0 -43.504970,-20.381827,0 -43.504970,-20.381827,0 -43.504970,-20.381827,0 -43.504860,-20.381947,0 -43.504860,-20.381947,0 -43.504860,-20.381947,0 -43.504682,-20.382117,0 -43.504658,-20.382177,0 -43.504682,-20.382117,0 -43.504682,-20.382117,0 -43.504637,-20.382370,0 -43.504637,-20.382370,0 -43.504637,-20.382370,0 -43.504623,-20.382495,0 -43.503632,-20.384912,0 -43.503548,-20.384907,0 -43.503437,-20.384827,0 -43.503262,-20.384571,0 -43.503242,-20.384233,0 -43.503242,-20.384233,0 -43.503242,-20.384233,0 -43.503246,-20.384146,0 -43.503247,-20.384147,0 -43.503275,-20.384027,0 -43.503275,-20.384027,0 -43.503275,-20.384027,0 -43.503290,-20.383838,0 -43.503290,-20.383838,0 -43.503290,-20.383838,0 -43.503290,-20.383733,0 -43.503290,-20.383733,0 -43.503290,-20.383733,0 -43.503265,-20.383270,0 -43.503090,-20.382992,0 -43.502979,-20.382992,0 -43.501789,-20.382866,0 -43.500092,-20.383625,0 -43.499792,-20.383713,0 -43.499792,-20.383713,0 -43.499792,-20.383713,0 -43.499642,-20.383755,0 -43.499642,-20.383755,0 -43.499642,-20.383755,0 -43.497593,-20.384533,0 -43.497425,-20.384829,0 -43.497383,-20.384823,0 -43.497383,-20.384823,0 -43.497383,-20.384823,0 -43.497143,-20.384963,0 -43.497027,-20.384990,0 -43.497027,-20.384990,0 -43.497027,-20.384990,0 -43.496880,-20.384966,0 -43.496441,-20.384773,0 -43.496136,-20.384474,0 -43.495949,-20.384571,0 -43.495571,-20.384665,0 -43.494137,-20.384542,0 -43.493633,-20.384350,0 -43.492462,-20.383644,0 -43.492321,-20.383230,0 -43.491199,-20.382677,0 -43.490944,-20.382734,0 -43.490398,-20.382786,0 -43.489845,-20.382664,0 -43.489571,-20.382898,0 -43.489287,-20.382945,0 -43.488689,-20.383127,0 -43.488457,-20.383207,0 -43.488323,-20.383156,0 -43.487878,-20.382967,0 -43.487878,-20.382967,0 -43.487878,-20.382967,0 -43.487307,-20.382852,0 -43.487307,-20.382852,0 -43.487307,-20.382852,0 -43.485702,-20.382202,0 -43.484795,-20.381531,0 -43.484039,-20.380062,0 -43.484127,-20.379972,0 -43.484420,-20.379687,0 -43.484467,-20.379671,0 -43.484520,-20.379610,0 -43.484581,-20.379456,0 -43.484539,-20.379280,0 -43.484051,-20.378696,0 -43.483397,-20.378360,0 -43.482048,-20.377970,0 -43.481495,-20.377426,0 -43.481370,-20.377367,0 -43.480042,-20.375944,0 -43.480053,-20.375896,0 -43.480129,-20.375826,0 -43.480217,-20.375814,0 -43.480381,-20.375896,0 -43.481270,-20.376196,0 -43.482403,-20.375980,0 -43.482967,-20.375671,0 -43.483152,-20.375717,0 -43.484699,-20.376089,0 -43.485992,-20.377062,0 -43.486023,-20.377499,0 -43.486046,-20.377834,0 -43.486395,-20.378863,0 -43.486378,-20.378904,0 -43.486385,-20.379278,0 -43.486832,-20.379824,0 -43.487263,-20.380165,0 -43.487549,-20.380850,0 -43.487943,-20.381150,0 -43.488575,-20.381821,0 -43.488701,-20.382072,0 -43.488983,-20.382244,0 -43.488956,-20.382345,0 -43.488670,-20.382666,0 -43.488461,-20.382675,0 -43.488305,-20.382593,0 -43.487728,-20.382557,0 -43.487713,-20.382650,0 -43.487713,-20.382650,0 -43.487713,-20.382650,0 -43.487713,-20.382650,0 -43.487770,-20.382780,0 -43.487905,-20.382855,0 -43.487905,-20.382855,0 -43.487905,-20.382855,0 -43.487998,-20.382955,0 -43.488457,-20.383204,0 -43.488678,-20.383152,0 -43.489784,-20.382704,0 -43.489925,-20.382561,0 -43.490086,-20.382587,0 -43.490727,-20.382750,0 -43.490871,-20.382706,0 -43.491341,-20.382681,0 -43.491699,-20.382944,0 -43.492111,-20.383156,0 -43.492424,-20.383352,0 -43.492458,-20.383497,0 -43.492580,-20.383848,0 -43.492916,-20.383968,0 -43.493263,-20.384100,0 -43.493465,-20.384314,0 -43.493638,-20.384342,0 -43.495872,-20.384581,0 -43.496047,-20.384482,0 -43.496185,-20.384466,0 -43.496315,-20.384590,0 -43.496750,-20.384899,0 -43.497152,-20.384910,0 -43.497152,-20.384910,0 -43.497152,-20.384910,0 -43.497208,-20.384878,0 -43.497413,-20.384757,0 -43.497413,-20.384757,0 -43.497413,-20.384757,0 -43.497517,-20.384706,0 -43.498207,-20.384026,0 -43.499793,-20.383688,0 -43.499793,-20.383688,0 -43.499793,-20.383688,0 -43.499847,-20.383673,0 -43.499847,-20.383673,0 -43.499847,-20.383673,0 -43.500092,-20.383587,0 -43.502216,-20.382793,0 -43.503178,-20.383116,0 -43.503288,-20.383490,0 -43.503317,-20.383795,0 -43.503317,-20.383795,0 -43.503317,-20.383795,0 -43.503320,-20.383953,0 -43.503320,-20.383953,0 -43.503320,-20.383953,0 -43.503340,-20.384007,0 -43.503293,-20.384115,0 -43.503293,-20.384115,0 -43.503293,-20.384115,0 -43.503270,-20.384352,0 -43.503270,-20.384352,0 -43.503270,-20.384352,0 -43.503357,-20.384676,0 -43.503651,-20.384865,0 -43.503719,-20.384821,0 -43.503857,-20.384575,0 -43.504583,-20.382202,0 -43.504583,-20.382202,0 -43.504583,-20.382202,0 -43.504720,-20.381965,0 -43.504720,-20.381965,0 -43.504720,-20.381965,0 -43.504797,-20.381900,0 -43.504797,-20.381900,0 -43.504797,-20.381900,0 -43.504997,-20.381710,0 -43.504997,-20.381710,0 -43.504997,-20.381710,0 -43.505302,-20.381447,0 -43.505352,-20.381417,0 -43.506788,-20.380667,0 -43.506788,-20.380667,0 -43.506788,-20.380667,0 -43.507268,-20.380457,0 -43.507268,-20.380457,0 -43.507268,-20.380457,0 -43.507469,-20.380390,0 -43.507545,-20.380442,0 -43.507580,-20.380539,0 -43.507587,-20.380588,0 -43.507587,-20.380588,0 -43.507587,-20.380588,0 -43.507545,-20.380722,0 -43.507545,-20.380722,0 -43.507545,-20.380722,0 -43.507538,-20.380735,0 -43.507416,-20.380865,0 -43.507457,-20.380845,0 -43.507457,-20.380845,0 -43.507457,-20.380845,0 -43.507324,-20.380871,0 -43.507236,-20.380819,0 -43.507238,-20.380820,0 -43.507238,-20.380820,0 -43.507238,-20.380820,0 -43.507068,-20.380715,0 -43.507068,-20.380715,0 -43.507068,-20.380715,0 -43.507038,-20.380638,0 -43.507065,-20.380581,0 -43.507183,-20.380501,0 -43.507248,-20.380473,0 -43.507248,-20.380473,0 -43.507248,-20.380473,0 -43.508575,-20.379772,0 -43.510970,-20.378840,0 -43.510970,-20.378840,0 -43.510970,-20.378840,0 -43.511152,-20.378772,0 -43.511152,-20.378772,0 -43.511152,-20.378772,0 -43.514229,-20.377899,0 -43.514230,-20.377898,0 -43.514230,-20.377898,0 -43.514230,-20.377898,0 -43.514540,-20.377938,0 -43.514540,-20.377938,0 -43.514540,-20.377938,0 -43.515228,-20.378162,0 -43.515228,-20.378162,0 -43.515228,-20.378162,0 -43.515255,-20.378200,0 -43.515263,-20.378210,0 -43.515343,-20.378265,0 -43.515343,-20.378265,0 -43.515343,-20.378265,0 -43.516655,-20.378950,0 -43.516655,-20.378950,0 -43.516655,-20.378950,0 -43.516861,-20.378988,0 -43.517245,-20.379045,0 -43.517245,-20.379045,0 -43.517245,-20.379045,0 -43.518033,-20.379100,0 -43.518033,-20.379100,0 -43.518033,-20.379100,0 -43.518408,-20.379130,0 -43.518408,-20.379130,0 -43.518408,-20.379130,0 -43.518967,-20.379265,0 -43.518993,-20.379365,0 -43.518990,-20.379416,0 -43.518993,-20.379365,0 -43.518993,-20.379365,0 -43.518918,-20.379632,0 -43.518918,-20.379632,0 -43.518918,-20.379632,0 -43.518648,-20.380432,0        </coordinates>      </LineString>    </Placemark>    <Placemark> <name>PONTO FINAL SÃO CRISTOVÃO</name>  <styleUrl>#stylefirst</styleUrl>     <Point> <coordinates>-43.517740,-20.380090,0 </coordinates>  </Point>  </Placemark>    <Placemark> <name>PONTO CHOOPERIA OP</name>  <styleUrl>#colorstyle</styleUrl>     <Point> <coordinates>-43.503260,-20.383830,0 </coordinates>  </Point>  </Placemark>    <Placemark> <name>PONTO ZOCA</name>  <styleUrl>#colorstyle</styleUrl>     <Point> <coordinates>-43.497242,-20.384944,0 </coordinates>  </Point>  </Placemark>    <Placemark> <name>PONTO POSTO HORTO DOS CONTOS</name>  <styleUrl>#colorstyle</styleUrl>     <Point> <coordinates>-43.504844,-20.381789,0 </coordinates>  </Point>  </Placemark>    <Placemark> <name>PONTO PADARIA VELOSO</name>  <styleUrl>#colorstyle</styleUrl>     <Point> <coordinates>-43.515247,-20.378162,0 </coordinates>  </Point>  </Placemark>    <Placemark> <name>PONTO TURISTICO VELOSO</name>  <styleUrl>#colorstyle</styleUrl>     <Point> <coordinates>-43.516820,-20.378960,0 </coordinates>  </Point>  </Placemark>    <Placemark> <name>PONTO ASÍLO</name>  <styleUrl>#stylelast</styleUrl>     <Point> <coordinates>-43.518604,-20.380499,0 </coordinates>  </Point>  </Placemark> </Folder></Document> </kml> 
